{
"type": "FeatureCollection",
"name": "CURBSTONE",
"crs": { "type": "name", "properties": { "name": "urn:ogc:def:crs:EPSG::4979" } },
"features": [
{"type":"Feature","properties":{"id":3002744,"modifier":null,"creator":null},"geometry":{"type":"LineString","coordinates":[[-112.2055516,33.7120643,0.0],[-112.2055076,33.7120678,0.0],[-112.2054599,33.7120716,0.0],[-112.2054287,33.7120741,0.0],[-112.205398,33.7120764,0.0],[-112.2053713,33.7120782,0.0],[-112.2053458,33.7120796,0.0],[-112.2053211,33.7120814,0.0],[-112.2052998,33.7120826,0.0],[-112.2052751,33.7120838,0.0],[-112.2052437,33.7120857,0.0],[-112.205214,33.7120869,0.0],[-112.2051863,33.7120881,0.0],[-112.2051568,33.7120892,0.0],[-112.2051301,33.7120902,0.0],[-112.2051016,33.7120912,0.0],[-112.2050724,33.7120921,0.0],[-112.2050427,33.7120928,0.0],[-112.2050159,33.7120934,0.0],[-112.205012,33.7120935,0.0],[-112.2049886,33.7120908,0.0],[-112.2049439,33.7120854,0.0],[-112.2048972,33.7120792,0.0],[-112.2048545,33.7120742,0.0],[-112.204822,33.7120699,0.0],[-112.2047914,33.7120665,0.0],[-112.2047648,33.7120632,0.0],[-112.2047319,33.7120594,0.0],[-112.2047095,33.7120565,0.0],[-112.2046924,33.7120545,0.0],[-112.204674,33.7120543,0.0],[-112.2046248,33.7120526,0.0],[-112.204571,33.7120516,0.0],[-112.2044877,33.7120492,0.0],[-112.204408,33.7120473,0.0],[-112.2043548,33.7120459,0.0]]}},
{"type":"Feature","properties":{"id":3002746,"modifier":null,"creator":null},"geometry":{"type":"LineString","coordinates":[[-112.2040905,33.7120428,0.0],[-112.2040571,33.7120428,0.0],[-112.2040024,33.7120431,0.0],[-112.2039487,33.7120433,0.0],[-112.2038686,33.7120433,0.0],[-112.2038146,33.7120435,0.0],[-112.2037352,33.7120437,0.0],[-112.203655,33.7120442,0.0],[-112.2035744,33.7120448,0.0],[-112.2035209,33.712045,0.0],[-112.203439,33.7120451,0.0],[-112.2033851,33.7120454,0.0],[-112.2033504,33.7120454,0.0]]}},
{"type":"Feature","properties":{"id":3002748,"modifier":null,"creator":null},"geometry":{"type":"LineString","coordinates":[[-112.2028787,33.7120498,0.0],[-112.2028288,33.7120451,0.0],[-112.2027954,33.71204,0.0],[-112.2027493,33.7120339,0.0],[-112.2027004,33.7120276,0.0],[-112.2026478,33.7120211,0.0],[-112.2026342,33.712019,0.0],[-112.2025802,33.7120192,0.0],[-112.202563,33.7120194,0.0],[-112.2025317,33.71202,0.0],[-112.2024981,33.71202,0.0],[-112.2024752,33.7120203,0.0],[-112.2024485,33.7120206,0.0],[-112.2024277,33.7120208,0.0],[-112.2023765,33.7120212,0.0],[-112.2023632,33.712021,0.0]]}},
{"type":"Feature","properties":{"id":3002752,"modifier":null,"creator":null},"geometry":{"type":"LineString","coordinates":[[-112.2022513,33.7123802,0.0],[-112.2023351,33.7123799,0.0],[-112.20242,33.7123796,0.0],[-112.2025014,33.712379,0.0],[-112.2025825,33.7123784,0.0],[-112.2026897,33.712378,0.0],[-112.2027697,33.7123774,0.0],[-112.2028579,33.7123769,0.0]]}},
{"type":"Feature","properties":{"id":3002754,"modifier":null,"creator":null},"geometry":{"type":"LineString","coordinates":[[-112.2029719,33.7124529,0.0],[-112.202973,33.7125375,0.0],[-112.2029737,33.7126097,0.0]]}},
{"type":"Feature","properties":{"id":3002958,"modifier":null,"creator":null},"geometry":{"type":"LineString","coordinates":[[-112.2032655,33.7124333,0.0],[-112.2032665,33.7124198,0.0],[-112.2032735,33.7124031,0.0],[-112.2032801,33.7123912,0.0],[-112.2032895,33.712379,0.0],[-112.2032961,33.7123699,0.0],[-112.2033056,33.712363,0.0],[-112.2033219,33.7123556,0.0],[-112.2033345,33.7123501,0.0],[-112.2033463,33.7123455,0.0],[-112.203361,33.7123424,0.0],[-112.2033763,33.7123424,0.0]]}},
{"type":"Feature","properties":{"id":3002960,"modifier":null,"creator":null},"geometry":{"type":"LineString","coordinates":[[-112.2033763,33.7123424,0.0],[-112.2034722,33.7123417,0.0],[-112.2035851,33.7123424,0.0],[-112.2036733,33.7123414,0.0],[-112.2038014,33.7123408,0.0],[-112.2039235,33.7123394,0.0],[-112.2040427,33.7123391,0.0],[-112.2042098,33.7123391,0.0],[-112.2043867,33.7123384,0.0],[-112.2045629,33.7123373,0.0],[-112.2046722,33.7123367,0.0],[-112.2047645,33.7123362,0.0],[-112.2048599,33.712336,0.0],[-112.2049487,33.712336,0.0]]}},
{"type":"Feature","properties":{"id":3002962,"modifier":null,"creator":null},"geometry":{"type":"LineString","coordinates":[[-112.2049487,33.712336,0.0],[-112.2050329,33.7123339,0.0],[-112.2050779,33.7123332,0.0],[-112.2051371,33.7123318,0.0],[-112.205196,33.7123289,0.0],[-112.2052389,33.7123276,0.0],[-112.2053222,33.7123227,0.0],[-112.205393,33.7123185,0.0],[-112.2054428,33.7123147,0.0],[-112.2054975,33.7123109,0.0],[-112.2055575,33.7123053,0.0],[-112.2056052,33.7122997,0.0]]}},
{"type":"Feature","properties":{"id":3002964,"modifier":null,"creator":null},"geometry":{"type":"LineString","coordinates":[[-112.2056059,33.7120345,0.0],[-112.2055969,33.7120442,0.0],[-112.205584,33.7120528,0.0],[-112.2055728,33.712058,0.0],[-112.2055599,33.7120616,0.0],[-112.2055516,33.7120643,0.0]]}},
{"type":"Feature","properties":{"id":3002966,"modifier":null,"creator":null},"geometry":{"type":"LineString","coordinates":[[-112.2056067,33.7121592,0.0],[-112.205564,33.7121632,0.0],[-112.2055178,33.7121678,0.0],[-112.2054767,33.7121711,0.0],[-112.2053927,33.7121779,0.0],[-112.2053399,33.7121814,0.0],[-112.2052905,33.7121847,0.0]]}},
{"type":"Feature","properties":{"id":3002968,"modifier":null,"creator":null},"geometry":{"type":"LineString","coordinates":[[-112.2052905,33.7121847,0.0],[-112.2052341,33.7121876,0.0],[-112.2051586,33.712191,0.0],[-112.2051088,33.712193,0.0],[-112.205059,33.712195,0.0],[-112.2050124,33.7121958,0.0],[-112.2049697,33.7121967,0.0],[-112.2049355,33.7121969,0.0],[-112.2048838,33.7121978,0.0],[-112.2048472,33.7121978,0.0],[-112.2047869,33.7121978,0.0],[-112.2047247,33.7121974,0.0],[-112.2046516,33.7121976,0.0],[-112.2046039,33.7121976,0.0],[-112.2045648,33.7121978,0.0],[-112.204462,33.7121978,0.0],[-112.2044323,33.7121988,0.0],[-112.2043804,33.7122039,0.0],[-112.2043459,33.7122097,0.0],[-112.2043189,33.7122152,0.0],[-112.2042925,33.7122201,0.0],[-112.204268,33.7122242,0.0],[-112.2042552,33.7122251,0.0],[-112.2042291,33.7122276,0.0],[-112.2041984,33.7122284,0.0],[-112.2041465,33.71223,0.0],[-112.2040907,33.7122298,0.0],[-112.2040163,33.7122302,0.0],[-112.2039242,33.7122303,0.0],[-112.2038382,33.7122309,0.0],[-112.2037508,33.7122309,0.0],[-112.2036596,33.7122312,0.0],[-112.2035648,33.7122309,0.0],[-112.203471,33.712231,0.0],[-112.2034045,33.7122309,0.0]]}},
{"type":"Feature","properties":{"id":3002970,"modifier":null,"creator":null},"geometry":{"type":"LineString","coordinates":[[-112.2034055,33.7122425,0.0],[-112.2034862,33.7122427,0.0],[-112.2036175,33.7122425,0.0],[-112.2037347,33.7122424,0.0],[-112.2038661,33.7122417,0.0],[-112.2039481,33.7122415,0.0],[-112.2040792,33.7122407,0.0],[-112.2041673,33.7122406,0.0],[-112.2043,33.7122399,0.0],[-112.2044321,33.7122395,0.0],[-112.2045646,33.7122391,0.0],[-112.2046971,33.712238,0.0],[-112.2047284,33.7122375,0.0],[-112.2047722,33.7122342,0.0],[-112.204807,33.7122319,0.0],[-112.2048643,33.7122251,0.0],[-112.2049207,33.7122181,0.0],[-112.2049605,33.7122131,0.0],[-112.2050096,33.7122082,0.0],[-112.2050553,33.7122045,0.0],[-112.2051202,33.7122011,0.0],[-112.2051568,33.7121994,0.0],[-112.2051993,33.7121979,0.0],[-112.2052572,33.7121955,0.0],[-112.2052912,33.7121941,0.0],[-112.2053649,33.712189,0.0],[-112.2054184,33.7121852,0.0],[-112.2054701,33.7121812,0.0],[-112.2055188,33.7121768,0.0],[-112.205564,33.712173,0.0],[-112.2056079,33.7121676,0.0]]}},
{"type":"Feature","properties":{"id":3002972,"modifier":null,"creator":null},"geometry":{"type":"LineString","coordinates":[[-112.2010558,33.7123868,0.0],[-112.2011544,33.7123873,0.0],[-112.2011819,33.7123881,0.0],[-112.2012096,33.7123903,0.0],[-112.2012488,33.7123931,0.0],[-112.2012913,33.7123949,0.0],[-112.2013433,33.7123982,0.0],[-112.2013698,33.7123997,0.0],[-112.2014158,33.7124024,0.0],[-112.2014593,33.7124053,0.0],[-112.2015101,33.7124083,0.0],[-112.2015611,33.7124118,0.0],[-112.2016064,33.7124149,0.0],[-112.2016364,33.7124165,0.0],[-112.2016411,33.712417,0.0],[-112.201681,33.7124165,0.0],[-112.2017635,33.7124165,0.0],[-112.2018245,33.7124161,0.0],[-112.2018842,33.7124159,0.0],[-112.2019353,33.7124153,0.0],[-112.2019846,33.7124158,0.0],[-112.202001,33.7124153,0.0]]}},
{"type":"Feature","properties":{"id":3002974,"modifier":null,"creator":null},"geometry":{"type":"LineString","coordinates":[[-112.2021925,33.7125046,0.0],[-112.2021939,33.7124172,0.0]]}},
{"type":"Feature","properties":{"id":3002976,"modifier":null,"creator":null},"geometry":{"type":"LineString","coordinates":[[-112.2021939,33.7124172,0.0],[-112.2022026,33.7124039,0.0],[-112.2022119,33.7123949,0.0],[-112.2022252,33.712387,0.0],[-112.2022377,33.7123824,0.0],[-112.2022513,33.7123802,0.0]]}},
{"type":"Feature","properties":{"id":3002978,"modifier":null,"creator":null},"geometry":{"type":"LineString","coordinates":[[-112.2020619,33.7124735,0.0],[-112.2020612,33.71253,0.0]]}},
{"type":"Feature","properties":{"id":3002980,"modifier":null,"creator":null},"geometry":{"type":"LineString","coordinates":[[-112.202001,33.7124153,0.0],[-112.2020111,33.7124169,0.0],[-112.2020265,33.7124219,0.0],[-112.202041,33.7124319,0.0],[-112.2020518,33.7124448,0.0],[-112.2020575,33.7124566,0.0],[-112.2020619,33.7124735,0.0]]}},
{"type":"Feature","properties":{"id":3002982,"modifier":null,"creator":null},"geometry":{"type":"LineString","coordinates":[[-112.2028595,33.712174,0.0],[-112.2028055,33.7121682,0.0],[-112.2027599,33.7121658,0.0],[-112.2027091,33.7121646,0.0],[-112.2026098,33.7121646,0.0],[-112.2024744,33.7121641,0.0],[-112.2023391,33.7121641,0.0],[-112.2022,33.7121639,0.0],[-112.2021084,33.7121635,0.0]]}},
{"type":"Feature","properties":{"id":3002984,"modifier":null,"creator":null},"geometry":{"type":"LineString","coordinates":[[-112.2021084,33.7121635,0.0],[-112.2019754,33.7121635,0.0],[-112.2018605,33.7121649,0.0],[-112.2017966,33.7121679,0.0],[-112.2017541,33.7121712,0.0],[-112.2017247,33.7121747,0.0],[-112.2016735,33.7121835,0.0],[-112.2016362,33.7121917,0.0],[-112.2016104,33.7121977,0.0],[-112.2015826,33.7122045,0.0],[-112.2015623,33.7122083,0.0],[-112.201544,33.7122121,0.0],[-112.2015231,33.7122146,0.0],[-112.2014914,33.7122196,0.0],[-112.2014752,33.712221,0.0],[-112.2014461,33.7122235,0.0],[-112.2014245,33.7122249,0.0],[-112.2013947,33.7122261,0.0],[-112.2013529,33.7122277,0.0],[-112.201294,33.7122302,0.0],[-112.2012405,33.7122326,0.0],[-112.201198,33.7122349,0.0],[-112.2011601,33.712238,0.0],[-112.201092,33.7122426,0.0]]}},
{"type":"Feature","properties":{"id":3002986,"modifier":null,"creator":null},"geometry":{"type":"LineString","coordinates":[[-112.2010931,33.7122582,0.0],[-112.2011649,33.7122632,0.0],[-112.2011949,33.7122648,0.0]]}},
{"type":"Feature","properties":{"id":3002988,"modifier":null,"creator":null},"geometry":{"type":"LineString","coordinates":[[-112.2011949,33.7122648,0.0],[-112.2012228,33.7122648,0.0],[-112.2012548,33.7122643,0.0],[-112.2013017,33.7122624,0.0],[-112.2013567,33.7122607,0.0],[-112.2014063,33.7122591,0.0],[-112.2014509,33.7122577,0.0],[-112.2014993,33.7122563,0.0],[-112.2015449,33.7122544,0.0],[-112.2015612,33.7122539,0.0],[-112.2016048,33.7122502,0.0],[-112.2016435,33.7122467,0.0],[-112.2016828,33.7122418,0.0],[-112.2017108,33.7122371,0.0],[-112.2017498,33.7122289,0.0],[-112.201793,33.7122188,0.0],[-112.2018284,33.7122105,0.0],[-112.2018534,33.712205,0.0],[-112.201872,33.7122014,0.0],[-112.2019034,33.7121959,0.0],[-112.201926,33.7121931,0.0],[-112.2019452,33.7121904,0.0],[-112.201962,33.7121889,0.0],[-112.2019757,33.7121879,0.0],[-112.2019943,33.7121864,0.0],[-112.2020129,33.7121852,0.0],[-112.202016,33.7121854,0.0],[-112.2020794,33.7121842,0.0],[-112.2021353,33.7121848,0.0],[-112.2022177,33.7121848,0.0],[-112.2022979,33.712185,0.0],[-112.2023784,33.7121853,0.0],[-112.2024856,33.7121856,0.0],[-112.2025926,33.712186,0.0],[-112.2026731,33.7121864,0.0],[-112.2027536,33.7121864,0.0],[-112.2028523,33.7121862,0.0]]}},
{"type":"Feature","properties":{"id":3002990,"modifier":null,"creator":null},"geometry":{"type":"LineString","coordinates":[[-112.2021731,33.711986,0.0],[-112.2021734,33.7120047,0.0],[-112.2021703,33.7120161,0.0],[-112.2021662,33.7120251,0.0],[-112.2021564,33.7120365,0.0],[-112.202148,33.7120428,0.0],[-112.2021345,33.7120489,0.0],[-112.2021214,33.7120521,0.0],[-112.202109,33.7120536,0.0]]}},
{"type":"Feature","properties":{"id":3002992,"modifier":null,"creator":null},"geometry":{"type":"LineString","coordinates":[[-112.2023632,33.712021,0.0],[-112.2023538,33.7120197,0.0],[-112.2023449,33.7120176,0.0],[-112.2023284,33.7120121,0.0],[-112.2023173,33.7120045,0.0],[-112.2023083,33.7119934,0.0],[-112.2023042,33.7119832,0.0],[-112.2023013,33.7119714,0.0],[-112.2023001,33.7119531,0.0]]}},
{"type":"Feature","properties":{"id":3002994,"modifier":null,"creator":null},"geometry":{"type":"LineString","coordinates":[[-112.2029784,33.7119589,0.0],[-112.2029753,33.7119744,0.0],[-112.2029695,33.711989,0.0],[-112.2029598,33.7120047,0.0],[-112.2029497,33.7120165,0.0],[-112.202939,33.7120254,0.0],[-112.2029265,33.712033,0.0],[-112.2029165,33.7120376,0.0],[-112.2028988,33.712044,0.0],[-112.2028866,33.712048,0.0],[-112.2028787,33.7120498,0.0]]}},
{"type":"Feature","properties":{"id":3002996,"modifier":null,"creator":null},"geometry":{"type":"LineString","coordinates":[[-112.2033504,33.7120454,0.0],[-112.203334,33.7120431,0.0],[-112.2033169,33.7120367,0.0],[-112.2033023,33.7120287,0.0],[-112.2032898,33.7120193,0.0],[-112.2032803,33.712008,0.0],[-112.2032696,33.7119894,0.0],[-112.2032666,33.7119793,0.0],[-112.2032644,33.711969,0.0]]}},
{"type":"Feature","properties":{"id":3002998,"modifier":null,"creator":null},"geometry":{"type":"LineString","coordinates":[[-112.2028579,33.7123769,0.0],[-112.2028707,33.7123769,0.0],[-112.2028875,33.7123792,0.0],[-112.2029,33.7123841,0.0],[-112.2029165,33.7123905,0.0],[-112.2029323,33.7124005,0.0],[-112.2029451,33.7124109,0.0],[-112.2029567,33.7124222,0.0],[-112.2029619,33.7124301,0.0],[-112.202968,33.7124405,0.0],[-112.2029719,33.7124529,0.0]]}},
{"type":"Feature","properties":{"id":3003000,"modifier":null,"creator":null},"geometry":{"type":"LineString","coordinates":[[-112.202109,33.7120536,0.0],[-112.2020621,33.7120535,0.0],[-112.2020118,33.7120538,0.0],[-112.201957,33.7120541,0.0],[-112.2019059,33.7120544,0.0],[-112.2018899,33.7120532,0.0],[-112.2018336,33.71205,0.0],[-112.201794,33.7120479,0.0],[-112.2017525,33.7120456,0.0],[-112.2017089,33.712043,0.0],[-112.2016526,33.7120395,0.0],[-112.2016038,33.7120366,0.0],[-112.2015307,33.7120323,0.0],[-112.2014759,33.7120288,0.0],[-112.2014166,33.71203,0.0],[-112.201345,33.712032,0.0],[-112.2012633,33.7120328,0.0],[-112.2011852,33.712034,0.0],[-112.201129,33.7120349,0.0],[-112.2010498,33.7120367,0.0]]}},
{"type":"Feature","properties":{"id":3003002,"modifier":null,"creator":null},"geometry":{"type":"LineString","coordinates":[[-112.2043548,33.7120459,0.0],[-112.2043272,33.7120395,0.0],[-112.204312,33.712031,0.0],[-112.204297,33.7120185,0.0],[-112.2042897,33.7120087,0.0],[-112.204283,33.7119872,0.0],[-112.2042827,33.7119794,0.0]]}},
{"type":"Feature","properties":{"id":3003004,"modifier":null,"creator":null},"geometry":{"type":"LineString","coordinates":[[-112.2041551,33.7119811,0.0],[-112.2041504,33.7120041,0.0],[-112.2041403,33.7120181,0.0],[-112.2041317,33.712027,0.0],[-112.204121,33.7120331,0.0],[-112.204107,33.7120386,0.0],[-112.2040905,33.7120428,0.0]]}},
{"type":"Feature","properties":{"id":3003144,"modifier":null,"creator":null},"geometry":{"type":"LineString","coordinates":[[-112.2010498,33.7120367,0.0],[-112.2010347,33.7120346,0.0],[-112.2010241,33.7120312,0.0],[-112.2010086,33.7120231,0.0],[-112.2009958,33.7120121,0.0],[-112.2009892,33.7119994,0.0],[-112.2009863,33.7119858,0.0],[-112.2009861,33.7119754,0.0]]}},
{"type":"Feature","properties":{"id":3003146,"modifier":null,"creator":null},"geometry":{"type":"LineString","coordinates":[[-112.2008551,33.7120148,0.0],[-112.2008549,33.7120294,0.0],[-112.2008492,33.712048,0.0],[-112.2008364,33.7120634,0.0],[-112.2008178,33.7120735,0.0],[-112.2008007,33.7120789,0.0],[-112.2007886,33.71208,0.0]]}},
{"type":"Feature","properties":{"id":3003148,"modifier":null,"creator":null},"geometry":{"type":"LineString","coordinates":[[-112.2007886,33.71208,0.0],[-112.2006515,33.7120804,0.0],[-112.2004434,33.7120814,0.0],[-112.2002501,33.7120822,0.0],[-112.2001153,33.7120827,0.0],[-112.1999741,33.7120839,0.0]]}},
{"type":"Feature","properties":{"id":3003150,"modifier":null,"creator":null},"geometry":{"type":"LineString","coordinates":[[-112.1998181,33.7120857,0.0],[-112.1996219,33.7120866,0.0],[-112.1994082,33.7120887,0.0]]}},
{"type":"Feature","properties":{"id":3003152,"modifier":null,"creator":null},"geometry":{"type":"LineString","coordinates":[[-112.1994082,33.7120887,0.0],[-112.1993858,33.7120863,0.0],[-112.1993631,33.7120793,0.0],[-112.1993416,33.7120671,0.0],[-112.1993252,33.7120526,0.0],[-112.1993127,33.712039,0.0],[-112.1993032,33.7120258,0.0],[-112.1992988,33.7120119,0.0],[-112.1992975,33.7119969,0.0]]}},
{"type":"Feature","properties":{"id":3003154,"modifier":null,"creator":null},"geometry":{"type":"LineString","coordinates":[[-112.1991934,33.7119981,0.0],[-112.1991923,33.7120125,0.0],[-112.1991887,33.7120267,0.0],[-112.1991797,33.7120413,0.0],[-112.1991697,33.7120548,0.0],[-112.1991568,33.7120682,0.0],[-112.1991378,33.7120798,0.0],[-112.1991206,33.7120863,0.0],[-112.1991046,33.7120899,0.0],[-112.1990804,33.7120916,0.0]]}},
{"type":"Feature","properties":{"id":3003156,"modifier":null,"creator":null},"geometry":{"type":"LineString","coordinates":[[-112.1990804,33.7120916,0.0],[-112.1989559,33.7120922,0.0],[-112.1987731,33.7120928,0.0],[-112.1986156,33.7120942,0.0],[-112.1984086,33.7120942,0.0],[-112.1981304,33.7120965,0.0],[-112.1979692,33.7120966,0.0],[-112.1977358,33.7120983,0.0]]}},
{"type":"Feature","properties":{"id":3003158,"modifier":null,"creator":null},"geometry":{"type":"LineString","coordinates":[[-112.1977358,33.7120983,0.0],[-112.1977181,33.712096,0.0],[-112.1976994,33.7120904,0.0],[-112.1976832,33.7120811,0.0],[-112.197672,33.7120754,0.0],[-112.1976547,33.7120609,0.0],[-112.1976449,33.7120495,0.0],[-112.1976363,33.7120371,0.0],[-112.1976303,33.712023,0.0]]}},
{"type":"Feature","properties":{"id":3003160,"modifier":null,"creator":null},"geometry":{"type":"LineString","coordinates":[[-112.1977439,33.7124059,0.0],[-112.1978832,33.7124052,0.0],[-112.198076,33.7124043,0.0],[-112.1982412,33.7124039,0.0],[-112.1983922,33.7124031,0.0],[-112.1985431,33.7124024,0.0],[-112.1987302,33.7124016,0.0],[-112.1989408,33.7124,0.0],[-112.1991303,33.7123992,0.0],[-112.1993505,33.712398,0.0],[-112.1995202,33.7123964,0.0],[-112.1996647,33.7123959,0.0],[-112.1998015,33.7123951,0.0],[-112.1998654,33.7123944,0.0]]}},
{"type":"Feature","properties":{"id":3003162,"modifier":null,"creator":null},"geometry":{"type":"LineString","coordinates":[[-112.1999249,33.7124508,0.0],[-112.1999362,33.7125151,0.0]]}},
{"type":"Feature","properties":{"id":3003164,"modifier":null,"creator":null},"geometry":{"type":"LineString","coordinates":[[-112.1999362,33.7125151,0.0],[-112.1999408,33.7125417,0.0]]}},
{"type":"Feature","properties":{"id":3003166,"modifier":null,"creator":null},"geometry":{"type":"LineString","coordinates":[[-112.1998654,33.7123944,0.0],[-112.199883,33.712397,0.0],[-112.1998991,33.7124053,0.0],[-112.1999124,33.7124174,0.0],[-112.1999199,33.7124324,0.0],[-112.1999249,33.7124508,0.0]]}},
{"type":"Feature","properties":{"id":3003168,"modifier":null,"creator":null},"geometry":{"type":"LineString","coordinates":[[-112.2000662,33.7125094,0.0],[-112.2000652,33.7124462,0.0]]}},
{"type":"Feature","properties":{"id":3003170,"modifier":null,"creator":null},"geometry":{"type":"LineString","coordinates":[[-112.2000652,33.7124462,0.0],[-112.2000683,33.7124319,0.0],[-112.2000745,33.7124152,0.0],[-112.2000845,33.7124045,0.0],[-112.2001012,33.7123963,0.0],[-112.2001136,33.7123941,0.0],[-112.2001329,33.7123921,0.0]]}},
{"type":"Feature","properties":{"id":3003172,"modifier":null,"creator":null},"geometry":{"type":"LineString","coordinates":[[-112.2001329,33.7123921,0.0],[-112.2002718,33.7123918,0.0],[-112.200405,33.7123915,0.0],[-112.2005436,33.7123903,0.0],[-112.2007913,33.7123885,0.0]]}},
{"type":"Feature","properties":{"id":3003174,"modifier":null,"creator":null},"geometry":{"type":"LineString","coordinates":[[-112.2007913,33.7123885,0.0],[-112.2008142,33.7123931,0.0],[-112.2008337,33.7124031,0.0],[-112.2008469,33.7124156,0.0],[-112.200854,33.712428,0.0],[-112.2008571,33.712442,0.0]]}},
{"type":"Feature","properties":{"id":3003176,"modifier":null,"creator":null},"geometry":{"type":"LineString","coordinates":[[-112.2008571,33.712442,0.0],[-112.2008567,33.7125034,0.0]]}},
{"type":"Feature","properties":{"id":3003178,"modifier":null,"creator":null},"geometry":{"type":"LineString","coordinates":[[-112.2009865,33.7125472,0.0],[-112.2009869,33.7124392,0.0]]}},
{"type":"Feature","properties":{"id":3003180,"modifier":null,"creator":null},"geometry":{"type":"LineString","coordinates":[[-112.2009869,33.7124392,0.0],[-112.2009914,33.7124229,0.0],[-112.2010018,33.7124073,0.0],[-112.2010178,33.7123974,0.0],[-112.2010404,33.712389,0.0],[-112.2010558,33.7123868,0.0]]}},
{"type":"Feature","properties":{"id":3003182,"modifier":null,"creator":null},"geometry":{"type":"LineString","coordinates":[[-112.201092,33.7122426,0.0],[-112.2010848,33.7122454,0.0],[-112.2010822,33.7122495,0.0],[-112.2010837,33.7122549,0.0],[-112.2010883,33.7122575,0.0],[-112.2010931,33.7122582,0.0]]}},
{"type":"Feature","properties":{"id":3003184,"modifier":null,"creator":null},"geometry":{"type":"LineString","coordinates":[[-112.2028523,33.7121862,0.0],[-112.2028584,33.7121857,0.0],[-112.2028629,33.712183,0.0],[-112.2028641,33.7121785,0.0],[-112.2028618,33.7121749,0.0],[-112.2028595,33.712174,0.0]]}},
{"type":"Feature","properties":{"id":3003186,"modifier":null,"creator":null},"geometry":{"type":"LineString","coordinates":[[-112.2034045,33.7122309,0.0],[-112.2034002,33.7122326,0.0],[-112.2033981,33.7122352,0.0],[-112.203398,33.7122393,0.0],[-112.2034011,33.7122417,0.0],[-112.2034055,33.7122425,0.0]]}},
{"type":"Feature","properties":{"id":3003188,"modifier":null,"creator":null},"geometry":{"type":"LineString","coordinates":[[-112.1976319,33.7125028,0.0],[-112.1976323,33.7124876,0.0],[-112.1976382,33.7124714,0.0],[-112.1976463,33.7124546,0.0],[-112.1976575,33.712442,0.0],[-112.1976741,33.7124289,0.0],[-112.1976887,33.7124195,0.0],[-112.1977091,33.7124119,0.0],[-112.1977251,33.7124076,0.0],[-112.1977439,33.7124059,0.0]]}},
{"type":"Feature","properties":{"id":3003190,"modifier":null,"creator":null},"geometry":{"type":"LineString","coordinates":[[-112.199613,33.7122904,0.0],[-112.199718,33.7122901,0.0],[-112.1998704,33.7122886,0.0],[-112.2000404,33.7122883,0.0],[-112.200076,33.7122864,0.0],[-112.20012,33.7122831,0.0],[-112.2001681,33.7122766,0.0],[-112.200207,33.7122691,0.0],[-112.2002464,33.7122616,0.0],[-112.2002772,33.7122556,0.0],[-112.2003372,33.7122484,0.0],[-112.2003681,33.7122456,0.0],[-112.200502,33.7122427,0.0],[-112.2005397,33.7122413,0.0],[-112.2006185,33.7122366,0.0],[-112.2006849,33.7122322,0.0],[-112.200716,33.7122303,0.0],[-112.2007483,33.712229,0.0]]}},
{"type":"Feature","properties":{"id":3003192,"modifier":null,"creator":null},"geometry":{"type":"LineString","coordinates":[[-112.2005571,33.7121901,0.0],[-112.2004445,33.7121908,0.0],[-112.2003462,33.7121917,0.0],[-112.2001633,33.7121927,0.0],[-112.2001025,33.7121931,0.0],[-112.2000572,33.7121957,0.0],[-112.2000062,33.7122018,0.0],[-112.1999542,33.7122103,0.0],[-112.1999079,33.7122195,0.0],[-112.1998698,33.7122248,0.0],[-112.1998209,33.712231,0.0],[-112.1997708,33.7122341,0.0],[-112.1997186,33.7122357,0.0],[-112.1996098,33.7122383,0.0],[-112.199559,33.7122401,0.0],[-112.1994836,33.7122453,0.0],[-112.1994445,33.7122477,0.0],[-112.1994128,33.7122489,0.0]]}},
{"type":"Feature","properties":{"id":3003194,"modifier":null,"creator":null},"geometry":{"type":"LineString","coordinates":[[-112.1994128,33.7122489,0.0],[-112.1994069,33.7122507,0.0],[-112.1994048,33.7122568,0.0],[-112.1994072,33.7122618,0.0],[-112.1994161,33.7122653,0.0],[-112.1994572,33.7122732,0.0],[-112.199521,33.7122832,0.0],[-112.1995709,33.7122886,0.0],[-112.199613,33.7122904,0.0]]}},
{"type":"Feature","properties":{"id":3003196,"modifier":null,"creator":null},"geometry":{"type":"LineString","coordinates":[[-112.2007483,33.712229,0.0],[-112.2007538,33.7122279,0.0],[-112.2007581,33.7122233,0.0],[-112.2007577,33.7122182,0.0],[-112.2007514,33.712214,0.0],[-112.2007259,33.7122079,0.0],[-112.2006549,33.7121966,0.0],[-112.2006089,33.7121921,0.0],[-112.200577,33.7121909,0.0],[-112.2005571,33.7121901,0.0]]}},
{"type":"Feature","properties":{"id":3003198,"modifier":null,"creator":null},"geometry":{"type":"LineString","coordinates":[[-112.1999615,33.7120444,0.0],[-112.1999639,33.7120219,0.0],[-112.1999689,33.7119999,0.0],[-112.1999771,33.7119802,0.0],[-112.1999862,33.711965,0.0],[-112.2000009,33.7119513,0.0],[-112.2000188,33.7119389,0.0],[-112.2000349,33.7119317,0.0]]}},
{"type":"Feature","properties":{"id":3003202,"modifier":null,"creator":null},"geometry":{"type":"LineString","coordinates":[[-112.1998344,33.7120392,0.0],[-112.1998181,33.7120857,0.0]]}},
{"type":"Feature","properties":{"id":3003204,"modifier":null,"creator":null},"geometry":{"type":"LineString","coordinates":[[-112.1999741,33.7120839,0.0],[-112.1999615,33.7120444,0.0]]}},
{"type":"Feature","properties":{"id":3003206,"modifier":null,"creator":null},"geometry":{"type":"LineString","coordinates":[[-112.2009861,33.7119754,0.0],[-112.2009926,33.7119555,0.0],[-112.2009991,33.7119421,0.0],[-112.2010121,33.7119257,0.0]]}},
{"type":"Feature","properties":{"id":3003208,"modifier":null,"creator":null},"geometry":{"type":"LineString","coordinates":[[-112.2007717,33.7119275,0.0],[-112.2007896,33.7119355,0.0],[-112.2008163,33.7119507,0.0],[-112.2008322,33.7119647,0.0],[-112.2008434,33.7119805,0.0],[-112.2008501,33.7119961,0.0],[-112.2008551,33.7120148,0.0]]}},
{"type":"Feature","properties":{"id":3003258,"modifier":null,"creator":null},"geometry":{"type":"LineString","coordinates":[[-112.2042827,33.7119794,0.0],[-112.2042825,33.7119576,0.0]]}}
]
}
