{
"type": "FeatureCollection",
"name": "LANE_MARKER",
"crs": { "type": "name", "properties": { "name": "urn:ogc:def:crs:EPSG::4979" } },
"features": [
{"type":"Feature","properties":{"id":1007738,"type":"line-thin","subtype":"dashed","color":"white","creator":null,"modifier":null,"att_editor":null},"geometry":{"type":"LineString","coordinates":[[-112.2019077,33.7121033,0.0],[-112.2017528,33.7121065,0.0]]}},
{"type":"Feature","properties":{"id":1007740,"type":"line-thin","subtype":"dashed","color":"white","creator":null,"modifier":null,"att_editor":null},"geometry":{"type":"LineString","coordinates":[[-112.2017528,33.7121065,0.0],[-112.2016695,33.7121082,0.0],[-112.2014905,33.7121117,0.0]]}},
{"type":"Feature","properties":{"id":1007742,"type":"line-thin","subtype":"dashed","color":"white","creator":null,"modifier":null,"att_editor":null},"geometry":{"type":"LineString","coordinates":[[-112.2014905,33.7121117,0.0],[-112.2014427,33.7121127,0.0]]}},
{"type":"Feature","properties":{"id":1007744,"type":"line-thin","subtype":"dashed","color":"white","creator":null,"modifier":null,"att_editor":null},"geometry":{"type":"LineString","coordinates":[[-112.2014427,33.7121127,0.0],[-112.2014195,33.7121132,0.0],[-112.2011755,33.7121173,0.0],[-112.2010528,33.7121196,0.0]]}},
{"type":"Feature","properties":{"id":1007746,"type":"line-thin","subtype":"dashed","color":"white","creator":null,"modifier":null,"att_editor":null},"geometry":{"type":"LineString","coordinates":[[-112.2010528,33.7121196,0.0],[-112.2009165,33.7121222,0.0],[-112.2007893,33.7121242,0.0]]}},
{"type":"Feature","properties":{"id":1007748,"type":"line-thin","subtype":"dashed","color":"white","creator":null,"modifier":null,"att_editor":null},"geometry":{"type":"LineString","coordinates":[[-112.2007893,33.7121242,0.0],[-112.2006268,33.7121269,0.0],[-112.2005566,33.7121276,0.0]]}},
{"type":"Feature","properties":{"id":1007750,"type":"line-thin","subtype":"dashed","color":"white","creator":null,"modifier":null,"att_editor":null},"geometry":{"type":"LineString","coordinates":[[-112.2005566,33.7121276,0.0],[-112.2003582,33.7121296,0.0],[-112.2000898,33.7121315,0.0],[-112.2000599,33.7121317,0.0]]}},
{"type":"Feature","properties":{"id":1007752,"type":"line-thin","subtype":"dashed","color":"white","creator":null,"modifier":null,"att_editor":null},"geometry":{"type":"LineString","coordinates":[[-112.2000599,33.7121317,0.0],[-112.1999748,33.7121325,0.0]]}},
{"type":"Feature","properties":{"id":1007754,"type":"line-thin","subtype":"dashed","color":"white","creator":null,"modifier":null,"att_editor":null},"geometry":{"type":"LineString","coordinates":[[-112.1999748,33.7121325,0.0],[-112.1998184,33.7121337,0.0]]}},
{"type":"Feature","properties":{"id":1007756,"type":"line-thin","subtype":"dashed","color":"white","creator":null,"modifier":null,"att_editor":null},"geometry":{"type":"LineString","coordinates":[[-112.1998184,33.7121337,0.0],[-112.199814,33.7121339,0.0],[-112.1997447,33.7121346,0.0]]}},
{"type":"Feature","properties":{"id":1007758,"type":"line-thin","subtype":"dashed","color":"white","creator":null,"modifier":null,"att_editor":null},"geometry":{"type":"LineString","coordinates":[[-112.1997447,33.7121346,0.0],[-112.1994098,33.7121381,0.0]]}},
{"type":"Feature","properties":{"id":1007760,"type":"line-thin","subtype":"dashed","color":"white","creator":null,"modifier":null,"att_editor":null},"geometry":{"type":"LineString","coordinates":[[-112.1990809,33.712142,0.0],[-112.1987813,33.7121447,0.0],[-112.1985536,33.7121464,0.0]]}},
{"type":"Feature","properties":{"id":1007762,"type":"line-thin","subtype":"dashed","color":"white","creator":null,"modifier":null,"att_editor":null},"geometry":{"type":"LineString","coordinates":[[-112.1985536,33.7121464,0.0],[-112.1984142,33.7121475,0.0],[-112.1982143,33.7121499,0.0]]}},
{"type":"Feature","properties":{"id":1007764,"type":"line-thin","subtype":"dashed","color":"white","creator":null,"modifier":null,"att_editor":null},"geometry":{"type":"LineString","coordinates":[[-112.1982143,33.7121499,0.0],[-112.1981031,33.7121513,0.0],[-112.1977274,33.7121549,0.0]]}},
{"type":"Feature","properties":{"id":1007766,"type":"line-thin","subtype":"dashed","color":"white","creator":null,"modifier":null,"att_editor":null},"geometry":{"type":"LineString","coordinates":[[-112.201754,33.7121348,0.0],[-112.2016684,33.7121365,0.0],[-112.2014923,33.7121398,0.0]]}},
{"type":"Feature","properties":{"id":1007768,"type":"line-thin","subtype":"dashed","color":"white","creator":null,"modifier":null,"att_editor":null},"geometry":{"type":"LineString","coordinates":[[-112.2014923,33.7121398,0.0],[-112.2014449,33.7121407,0.0]]}},
{"type":"Feature","properties":{"id":1007770,"type":"line-thin","subtype":"dashed","color":"white","creator":null,"modifier":null,"att_editor":null},"geometry":{"type":"LineString","coordinates":[[-112.2014449,33.7121407,0.0],[-112.2014189,33.7121412,0.0],[-112.2011407,33.7121457,0.0],[-112.2010533,33.7121475,0.0]]}},
{"type":"Feature","properties":{"id":1007772,"type":"line-thin","subtype":"dashed","color":"white","creator":null,"modifier":null,"att_editor":null},"geometry":{"type":"LineString","coordinates":[[-112.2010533,33.7121475,0.0],[-112.2007896,33.7121529,0.0]]}},
{"type":"Feature","properties":{"id":1007774,"type":"line-thin","subtype":"dashed","color":"white","creator":null,"modifier":null,"att_editor":null},"geometry":{"type":"LineString","coordinates":[[-112.2007896,33.7121529,0.0],[-112.2007895,33.7121529,0.0],[-112.2007685,33.7121534,0.0],[-112.2005568,33.7121568,0.0]]}},
{"type":"Feature","properties":{"id":1007776,"type":"line-thin","subtype":"dashed","color":"white","creator":null,"modifier":null,"att_editor":null},"geometry":{"type":"LineString","coordinates":[[-112.2005568,33.7121568,0.0],[-112.2005233,33.7121575,0.0],[-112.200125,33.7121614,0.0],[-112.2000594,33.7121619,0.0]]}},
{"type":"Feature","properties":{"id":1007778,"type":"line-thin","subtype":"dashed","color":"white","creator":null,"modifier":null,"att_editor":null},"geometry":{"type":"LineString","coordinates":[[-112.198554,33.7121769,0.0],[-112.1985105,33.7121774,0.0],[-112.1982279,33.7121797,0.0],[-112.1982154,33.7121798,0.0]]}},
{"type":"Feature","properties":{"id":1007780,"type":"line-thin","subtype":"dashed","color":"white","creator":null,"modifier":null,"att_editor":null},"geometry":{"type":"LineString","coordinates":[[-112.1982154,33.7121798,0.0],[-112.1979641,33.7121829,0.0],[-112.1977177,33.7121857,0.0]]}},
{"type":"Feature","properties":{"id":1007782,"type":"line-thin","subtype":"dashed","color":"white","creator":null,"modifier":null,"att_editor":null},"geometry":{"type":"LineString","coordinates":[[-112.197705,33.712322,0.0],[-112.1977732,33.712323,0.0]]}},
{"type":"Feature","properties":{"id":1007784,"type":"line-thin","subtype":"dashed","color":"white","creator":null,"modifier":null,"att_editor":null},"geometry":{"type":"LineString","coordinates":[[-112.1977732,33.712323,0.0],[-112.1981384,33.7123289,0.0],[-112.1984696,33.7123346,0.0]]}},
{"type":"Feature","properties":{"id":1007786,"type":"line-thin","subtype":"dashed","color":"white","creator":null,"modifier":null,"att_editor":null},"geometry":{"type":"LineString","coordinates":[[-112.1984696,33.7123346,0.0],[-112.198551,33.712336,0.0],[-112.1988177,33.7123402,0.0]]}},
{"type":"Feature","properties":{"id":1007788,"type":"line-thin","subtype":"dashed","color":"white","creator":null,"modifier":null,"att_editor":null},"geometry":{"type":"LineString","coordinates":[[-112.1988177,33.7123402,0.0],[-112.1988932,33.7123415,0.0],[-112.1991384,33.7123447,0.0]]}},
{"type":"Feature","properties":{"id":1007790,"type":"line-thin","subtype":"dashed","color":"white","creator":null,"modifier":null,"att_editor":null},"geometry":{"type":"LineString","coordinates":[[-112.1991384,33.7123447,0.0],[-112.1991896,33.7123453,0.0]]}},
{"type":"Feature","properties":{"id":1007792,"type":"line-thin","subtype":"dashed","color":"white","creator":null,"modifier":null,"att_editor":null},"geometry":{"type":"LineString","coordinates":[[-112.1991896,33.7123453,0.0],[-112.1992905,33.7123468,0.0],[-112.1993869,33.7123478,0.0]]}},
{"type":"Feature","properties":{"id":1007794,"type":"line-thin","subtype":"dashed","color":"white","creator":null,"modifier":null,"att_editor":null},"geometry":{"type":"LineString","coordinates":[[-112.1993869,33.7123478,0.0],[-112.1995793,33.7123498,0.0],[-112.1996134,33.7123498,0.0],[-112.1996135,33.7123498,0.0]]}},
{"type":"Feature","properties":{"id":1007796,"type":"line-thin","subtype":"dashed","color":"white","creator":null,"modifier":null,"att_editor":null},"geometry":{"type":"LineString","coordinates":[[-112.1996135,33.7123498,0.0],[-112.199815,33.7123498,0.0],[-112.1998615,33.7123493,0.0]]}},
{"type":"Feature","properties":{"id":1007798,"type":"line-thin","subtype":"dashed","color":"white","creator":null,"modifier":null,"att_editor":null},"geometry":{"type":"LineString","coordinates":[[-112.1998615,33.7123493,0.0],[-112.2000934,33.7123468,0.0]]}},
{"type":"Feature","properties":{"id":1007800,"type":"line-thin","subtype":"dashed","color":"white","creator":null,"modifier":null,"att_editor":null},"geometry":{"type":"LineString","coordinates":[[-112.2000934,33.7123468,0.0],[-112.2001256,33.7123465,0.0],[-112.2001321,33.7123463,0.0]]}},
{"type":"Feature","properties":{"id":1007802,"type":"line-thin","subtype":"dashed","color":"white","creator":null,"modifier":null,"att_editor":null},"geometry":{"type":"LineString","coordinates":[[-112.2001321,33.7123463,0.0],[-112.2003888,33.7123416,0.0]]}},
{"type":"Feature","properties":{"id":1007804,"type":"line-thin","subtype":"dashed","color":"white","creator":null,"modifier":null,"att_editor":null},"geometry":{"type":"LineString","coordinates":[[-112.2003888,33.7123416,0.0],[-112.2005229,33.7123392,0.0],[-112.2007905,33.7123336,0.0]]}},
{"type":"Feature","properties":{"id":1007806,"type":"line-thin","subtype":"dashed","color":"white","creator":null,"modifier":null,"att_editor":null},"geometry":{"type":"LineString","coordinates":[[-112.2007905,33.7123336,0.0],[-112.2008236,33.712333,0.0],[-112.2008633,33.7123321,0.0]]}},
{"type":"Feature","properties":{"id":1007808,"type":"line-thin","subtype":"dashed","color":"white","creator":null,"modifier":null,"att_editor":null},"geometry":{"type":"LineString","coordinates":[[-112.2008633,33.7123321,0.0],[-112.2010524,33.7123281,0.0]]}},
{"type":"Feature","properties":{"id":1007810,"type":"line-thin","subtype":"dashed","color":"white","creator":null,"modifier":null,"att_editor":null},"geometry":{"type":"LineString","coordinates":[[-112.2010524,33.7123281,0.0],[-112.2011381,33.7123263,0.0]]}},
{"type":"Feature","properties":{"id":1007812,"type":"line-thin","subtype":"dashed","color":"white","creator":null,"modifier":null,"att_editor":null},"geometry":{"type":"LineString","coordinates":[[-112.2011381,33.7123263,0.0],[-112.2011972,33.7123251,0.0]]}},
{"type":"Feature","properties":{"id":1007814,"type":"line-thin","subtype":"dashed","color":"white","creator":null,"modifier":null,"att_editor":null},"geometry":{"type":"LineString","coordinates":[[-112.2011972,33.7123251,0.0],[-112.2012687,33.7123236,0.0],[-112.2013155,33.7123222,0.0]]}},
{"type":"Feature","properties":{"id":1007816,"type":"line-thin","subtype":"dashed","color":"white","creator":null,"modifier":null,"att_editor":null},"geometry":{"type":"LineString","coordinates":[[-112.1984721,33.7123069,0.0],[-112.1988083,33.7123124,0.0],[-112.1988183,33.7123125,0.0]]}},
{"type":"Feature","properties":{"id":1007818,"type":"line-thin","subtype":"dashed","color":"white","creator":null,"modifier":null,"att_editor":null},"geometry":{"type":"LineString","coordinates":[[-112.1988183,33.7123125,0.0],[-112.1991388,33.7123173,0.0]]}},
{"type":"Feature","properties":{"id":1007820,"type":"line-thin","subtype":"dashed","color":"white","creator":null,"modifier":null,"att_editor":null},"geometry":{"type":"LineString","coordinates":[[-112.1991388,33.7123173,0.0],[-112.1991787,33.7123179,0.0],[-112.1991901,33.712318,0.0]]}},
{"type":"Feature","properties":{"id":1007822,"type":"line-thin","subtype":"dashed","color":"white","creator":null,"modifier":null,"att_editor":null},"geometry":{"type":"LineString","coordinates":[[-112.1991901,33.712318,0.0],[-112.1993864,33.71232,0.0]]}},
{"type":"Feature","properties":{"id":1007824,"type":"line-thin","subtype":"dashed","color":"white","creator":null,"modifier":null,"att_editor":null},"geometry":{"type":"LineString","coordinates":[[-112.1993864,33.71232,0.0],[-112.1994735,33.7123209,0.0],[-112.1996127,33.712321,0.0]]}},
{"type":"Feature","properties":{"id":1007826,"type":"line-thin","subtype":"dashed","color":"white","creator":null,"modifier":null,"att_editor":null},"geometry":{"type":"LineString","coordinates":[[-112.1996127,33.712321,0.0],[-112.199831,33.7123215,0.0],[-112.1998604,33.712321,0.0]]}},
{"type":"Feature","properties":{"id":1007828,"type":"line-thin","subtype":"dashed","color":"white","creator":null,"modifier":null,"att_editor":null},"geometry":{"type":"LineString","coordinates":[[-112.1998604,33.712321,0.0],[-112.2000945,33.7123187,0.0]]}},
{"type":"Feature","properties":{"id":1007830,"type":"line-thin","subtype":"dashed","color":"white","creator":null,"modifier":null,"att_editor":null},"geometry":{"type":"LineString","coordinates":[[-112.2049976,33.7121355,0.0],[-112.2049391,33.7121374,0.0],[-112.2047059,33.7121401,0.0],[-112.2046788,33.7121397,0.0]]}},
{"type":"Feature","properties":{"id":1007832,"type":"line-thin","subtype":"dashed","color":"white","creator":null,"modifier":null,"att_editor":null},"geometry":{"type":"LineString","coordinates":[[-112.2046788,33.7121397,0.0],[-112.2044512,33.7121368,0.0]]}},
{"type":"Feature","properties":{"id":1007834,"type":"line-thin","subtype":"dashed","color":"white","creator":null,"modifier":null,"att_editor":null},"geometry":{"type":"LineString","coordinates":[[-112.2044512,33.7121368,0.0],[-112.2043605,33.7121356,0.0]]}},
{"type":"Feature","properties":{"id":1007836,"type":"line-thin","subtype":"dashed","color":"white","creator":null,"modifier":null,"att_editor":null},"geometry":{"type":"LineString","coordinates":[[-112.2044498,33.7121678,0.0],[-112.2044326,33.7121678,0.0],[-112.204362,33.7121663,0.0]]}},
{"type":"Feature","properties":{"id":1007838,"type":"line-thin","subtype":"dashed","color":"white","creator":null,"modifier":null,"att_editor":null},"geometry":{"type":"LineString","coordinates":[[-112.204362,33.7121663,0.0],[-112.2041599,33.7121622,0.0],[-112.2040711,33.7121605,0.0]]}},
{"type":"Feature","properties":{"id":1007840,"type":"line-thin","subtype":"dashed","color":"white","creator":null,"modifier":null,"att_editor":null},"geometry":{"type":"LineString","coordinates":[[-112.2040711,33.7121605,0.0],[-112.2039959,33.7121591,0.0]]}},
{"type":"Feature","properties":{"id":1007842,"type":"line-thin","subtype":"dashed","color":"white","creator":null,"modifier":null,"att_editor":null},"geometry":{"type":"LineString","coordinates":[[-112.2039959,33.7121591,0.0],[-112.203896,33.7121573,0.0],[-112.203842,33.7121562,0.0]]}},
{"type":"Feature","properties":{"id":1007844,"type":"line-thin","subtype":"dashed","color":"white","creator":null,"modifier":null,"att_editor":null},"geometry":{"type":"LineString","coordinates":[[-112.203842,33.7121562,0.0],[-112.2035316,33.7121502,0.0],[-112.2033489,33.7121467,0.0]]}},
{"type":"Feature","properties":{"id":1007846,"type":"line-thin","subtype":"dashed","color":"white","creator":null,"modifier":null,"att_editor":null},"geometry":{"type":"LineString","coordinates":[[-112.2034049,33.7122736,0.0],[-112.2036965,33.7122728,0.0],[-112.2039872,33.7122719,0.0],[-112.2042308,33.7122705,0.0],[-112.2046145,33.7122689,0.0],[-112.2047494,33.7122681,0.0]]}},
{"type":"Feature","properties":{"id":1007848,"type":"line-thin","subtype":"dashed","color":"white","creator":null,"modifier":null,"att_editor":null},"geometry":{"type":"LineString","coordinates":[[-112.2034061,33.7123013,0.0],[-112.2037096,33.7123002,0.0],[-112.204122,33.7122989,0.0],[-112.2045162,33.7122967,0.0],[-112.2047491,33.7122959,0.0]]}},
{"type":"Feature","properties":{"id":1007850,"type":"line-thin","subtype":"dashed","color":"white","creator":null,"modifier":null,"att_editor":null},"geometry":{"type":"LineString","coordinates":[[-112.2047491,33.7122959,0.0],[-112.2048649,33.7122955,0.0],[-112.2049464,33.7122943,0.0]]}},
{"type":"Feature","properties":{"id":1007852,"type":"line-thin","subtype":"dashed","color":"white","creator":null,"modifier":null,"att_editor":null},"geometry":{"type":"LineString","coordinates":[[-112.2049464,33.7122943,0.0],[-112.2050453,33.712293,0.0],[-112.2051379,33.7122894,0.0]]}},
{"type":"Feature","properties":{"id":1007854,"type":"line-thin","subtype":"dashed","color":"white","creator":null,"modifier":null,"att_editor":null},"geometry":{"type":"LineString","coordinates":[[-112.2051379,33.7122894,0.0],[-112.2052833,33.7122839,0.0],[-112.2053668,33.7122784,0.0]]}},
{"type":"Feature","properties":{"id":1007856,"type":"line-thin","subtype":"dashed","color":"white","creator":null,"modifier":null,"att_editor":null},"geometry":{"type":"LineString","coordinates":[[-112.2053668,33.7122784,0.0],[-112.2054448,33.7122736,0.0],[-112.2055789,33.7122619,0.0]]}},
{"type":"Feature","properties":{"id":1008478,"type":"line-thin","subtype":"dashed","color":"white","creator":null,"modifier":null,"att_editor":null},"geometry":{"type":"LineString","coordinates":[[-112.2028844,33.7121372,0.0],[-112.2027603,33.7121355,0.0]]}},
{"type":"Feature","properties":{"id":1008480,"type":"line-thin","subtype":"dashed","color":"white","creator":null,"modifier":null,"att_editor":null},"geometry":{"type":"LineString","coordinates":[[-112.2027603,33.7121355,0.0],[-112.2026355,33.7121337,0.0]]}},
{"type":"Feature","properties":{"id":1008482,"type":"line-thin","subtype":"dashed","color":"white","creator":null,"modifier":null,"att_editor":null},"geometry":{"type":"LineString","coordinates":[[-112.2026355,33.7121337,0.0],[-112.2026017,33.7121334,0.0],[-112.2023686,33.7121327,0.0]]}},
{"type":"Feature","properties":{"id":1008484,"type":"line-thin","subtype":"dashed","color":"white","creator":null,"modifier":null,"att_editor":null},"geometry":{"type":"LineString","coordinates":[[-112.2023686,33.7121327,0.0],[-112.2023491,33.7121327,0.0],[-112.2021074,33.7121313,0.0]]}},
{"type":"Feature","properties":{"id":1008486,"type":"line-thin","subtype":"dashed","color":"white","creator":null,"modifier":null,"att_editor":null},"geometry":{"type":"LineString","coordinates":[[-112.2021074,33.7121313,0.0],[-112.2020832,33.7121313,0.0],[-112.2019253,33.7121315,0.0],[-112.201909,33.7121318,0.0]]}},
{"type":"Feature","properties":{"id":1008488,"type":"line-thin","subtype":"dashed","color":"white","creator":null,"modifier":null,"att_editor":null},"geometry":{"type":"LineString","coordinates":[[-112.201909,33.7121318,0.0],[-112.201754,33.7121348,0.0]]}},
{"type":"Feature","properties":{"id":1008490,"type":"line-thin","subtype":"dashed","color":"white","creator":null,"modifier":null,"att_editor":null},"geometry":{"type":"LineString","coordinates":[[-112.202883,33.7121052,0.0],[-112.2027601,33.7121049,0.0]]}},
{"type":"Feature","properties":{"id":1008492,"type":"line-thin","subtype":"dashed","color":"white","creator":null,"modifier":null,"att_editor":null},"geometry":{"type":"LineString","coordinates":[[-112.2027601,33.7121049,0.0],[-112.2026352,33.7121047,0.0]]}},
{"type":"Feature","properties":{"id":1008494,"type":"line-thin","subtype":"dashed","color":"white","creator":null,"modifier":null,"att_editor":null},"geometry":{"type":"LineString","coordinates":[[-112.2026352,33.7121047,0.0],[-112.2025858,33.7121046,0.0],[-112.2023684,33.7121037,0.0]]}},
{"type":"Feature","properties":{"id":1008496,"type":"line-thin","subtype":"dashed","color":"white","creator":null,"modifier":null,"att_editor":null},"geometry":{"type":"LineString","coordinates":[[-112.2023684,33.7121037,0.0],[-112.2023548,33.7121037,0.0],[-112.2021066,33.7121033,0.0]]}},
{"type":"Feature","properties":{"id":1008498,"type":"line-thin","subtype":"dashed","color":"white","creator":null,"modifier":null,"att_editor":null},"geometry":{"type":"LineString","coordinates":[[-112.2021066,33.7121033,0.0],[-112.202099,33.7121033,0.0],[-112.2019226,33.7121032,0.0],[-112.2019077,33.7121033,0.0]]}},
{"type":"Feature","properties":{"id":1008500,"type":"line-thin","subtype":"dashed","color":"white","creator":null,"modifier":null,"att_editor":null},"geometry":{"type":"LineString","coordinates":[[-112.2019952,33.7123076,0.0],[-112.202058,33.7123072,0.0]]}},
{"type":"Feature","properties":{"id":1008502,"type":"line-thin","subtype":"dashed","color":"white","creator":null,"modifier":null,"att_editor":null},"geometry":{"type":"LineString","coordinates":[[-112.202058,33.7123072,0.0],[-112.2022489,33.7123058,0.0]]}},
{"type":"Feature","properties":{"id":1008504,"type":"line-thin","subtype":"dashed","color":"white","creator":null,"modifier":null,"att_editor":null},"geometry":{"type":"LineString","coordinates":[[-112.2022489,33.7123058,0.0],[-112.2023249,33.7123054,0.0],[-112.2028548,33.7123045,0.0]]}},
{"type":"Feature","properties":{"id":1008506,"type":"line-thin","subtype":"dashed","color":"white","creator":null,"modifier":null,"att_editor":null},"geometry":{"type":"LineString","coordinates":[[-112.2028548,33.7123045,0.0],[-112.2028916,33.7123045,0.0]]}},
{"type":"Feature","properties":{"id":1008508,"type":"line-thin","subtype":"dashed","color":"white","creator":null,"modifier":null,"att_editor":null},"geometry":{"type":"LineString","coordinates":[[-112.2013155,33.7123222,0.0],[-112.2016211,33.7123137,0.0]]}},
{"type":"Feature","properties":{"id":1008510,"type":"line-thin","subtype":"dashed","color":"white","creator":null,"modifier":null,"att_editor":null},"geometry":{"type":"LineString","coordinates":[[-112.2016211,33.7123137,0.0],[-112.2016412,33.7123131,0.0]]}},
{"type":"Feature","properties":{"id":1008512,"type":"line-thin","subtype":"dashed","color":"white","creator":null,"modifier":null,"att_editor":null},"geometry":{"type":"LineString","coordinates":[[-112.2016412,33.7123131,0.0],[-112.2016691,33.7123125,0.0],[-112.2019575,33.712308,0.0],[-112.2019952,33.7123076,0.0]]}},
{"type":"Feature","properties":{"id":1008514,"type":"line-thin","subtype":"dashed","color":"white","creator":null,"modifier":null,"att_editor":null},"geometry":{"type":"LineString","coordinates":[[-112.2016204,33.7122865,0.0],[-112.2016401,33.712286,0.0]]}},
{"type":"Feature","properties":{"id":1008516,"type":"line-thin","subtype":"dashed","color":"white","creator":null,"modifier":null,"att_editor":null},"geometry":{"type":"LineString","coordinates":[[-112.2016401,33.712286,0.0],[-112.2016894,33.7122848,0.0],[-112.2019575,33.7122807,0.0],[-112.2019922,33.7122804,0.0]]}},
{"type":"Feature","properties":{"id":1008518,"type":"line-thin","subtype":"dashed","color":"white","creator":null,"modifier":null,"att_editor":null},"geometry":{"type":"LineString","coordinates":[[-112.2019922,33.7122804,0.0],[-112.202057,33.7122799,0.0]]}},
{"type":"Feature","properties":{"id":1008520,"type":"line-thin","subtype":"dashed","color":"white","creator":null,"modifier":null,"att_editor":null},"geometry":{"type":"LineString","coordinates":[[-112.202057,33.7122799,0.0],[-112.2022488,33.7122786,0.0]]}},
{"type":"Feature","properties":{"id":1008522,"type":"line-thin","subtype":"dashed","color":"white","creator":null,"modifier":null,"att_editor":null},"geometry":{"type":"LineString","coordinates":[[-112.2022488,33.7122786,0.0],[-112.2023642,33.7122778,0.0],[-112.2027224,33.7122768,0.0],[-112.2028536,33.7122765,0.0]]}},
{"type":"Feature","properties":{"id":1008524,"type":"line-thin","subtype":"dashed","color":"white","creator":null,"modifier":null,"att_editor":null},"geometry":{"type":"LineString","coordinates":[[-112.2028536,33.7122765,0.0],[-112.2028904,33.7122765,0.0]]}},
{"type":"Feature","properties":{"id":1008526,"type":"line-thin","subtype":"dashed","color":"white","creator":null,"modifier":null,"att_editor":null},"geometry":{"type":"LineString","coordinates":[[-112.2043605,33.7121356,0.0],[-112.2043016,33.7121349,0.0],[-112.2040713,33.7121304,0.0]]}},
{"type":"Feature","properties":{"id":1008528,"type":"line-thin","subtype":"dashed","color":"white","creator":null,"modifier":null,"att_editor":null},"geometry":{"type":"LineString","coordinates":[[-112.2040713,33.7121304,0.0],[-112.2039957,33.7121289,0.0]]}},
{"type":"Feature","properties":{"id":1008530,"type":"line-thin","subtype":"dashed","color":"white","creator":null,"modifier":null,"att_editor":null},"geometry":{"type":"LineString","coordinates":[[-112.2039957,33.7121289,0.0],[-112.2039316,33.7121277,0.0],[-112.203842,33.7121258,0.0]]}},
{"type":"Feature","properties":{"id":1008532,"type":"line-thin","subtype":"dashed","color":"white","creator":null,"modifier":null,"att_editor":null},"geometry":{"type":"LineString","coordinates":[[-112.203842,33.7121258,0.0],[-112.2036635,33.7121224,0.0],[-112.2033485,33.7121167,0.0]]}},
{"type":"Feature","properties":{"id":1008534,"type":"line-thin","subtype":"dashed","color":"white","creator":null,"modifier":null,"att_editor":null},"geometry":{"type":"LineString","coordinates":[[-112.2055443,33.7121045,0.0],[-112.2053931,33.7121182,0.0],[-112.2052844,33.7121243,0.0]]}},
{"type":"Feature","properties":{"id":1008536,"type":"line-thin","subtype":"dashed","color":"white","creator":null,"modifier":null,"att_editor":null},"geometry":{"type":"LineString","coordinates":[[-112.2052844,33.7121243,0.0],[-112.2052244,33.7121278,0.0],[-112.2050807,33.7121329,0.0],[-112.2049976,33.7121355,0.0]]}},
{"type":"Feature","properties":{"id":1008538,"type":"line-thin","subtype":"dashed","color":"white","creator":null,"modifier":null,"att_editor":null},"geometry":{"type":"LineString","coordinates":[[-112.2055496,33.7121316,0.0],[-112.2053666,33.7121471,0.0],[-112.2052872,33.7121518,0.0]]}},
{"type":"Feature","properties":{"id":1008540,"type":"line-thin","subtype":"dashed","color":"white","creator":null,"modifier":null,"att_editor":null},"geometry":{"type":"LineString","coordinates":[[-112.2052872,33.7121518,0.0],[-112.2052148,33.7121562,0.0],[-112.2050031,33.7121643,0.0],[-112.2049996,33.7121643,0.0]]}},
{"type":"Feature","properties":{"id":1008542,"type":"line-thin","subtype":"dashed","color":"white","creator":null,"modifier":null,"att_editor":null},"geometry":{"type":"LineString","coordinates":[[-112.2049996,33.7121643,0.0],[-112.20472,33.7121692,0.0],[-112.2046795,33.712169,0.0]]}},
{"type":"Feature","properties":{"id":1008544,"type":"line-thin","subtype":"dashed","color":"white","creator":null,"modifier":null,"att_editor":null},"geometry":{"type":"LineString","coordinates":[[-112.2046795,33.712169,0.0],[-112.2044498,33.7121678,0.0]]}},
{"type":"Feature","properties":{"id":1008546,"type":"line-thin","subtype":"dashed","color":"white","creator":null,"modifier":null,"att_editor":null},"geometry":{"type":"LineString","coordinates":[[-112.2047494,33.7122681,0.0],[-112.2049091,33.7122673,0.0],[-112.204945,33.7122666,0.0]]}},
{"type":"Feature","properties":{"id":1008548,"type":"line-thin","subtype":"dashed","color":"white","creator":null,"modifier":null,"att_editor":null},"geometry":{"type":"LineString","coordinates":[[-112.204945,33.7122666,0.0],[-112.2051358,33.7122629,0.0]]}},
{"type":"Feature","properties":{"id":1008550,"type":"line-thin","subtype":"dashed","color":"white","creator":null,"modifier":null,"att_editor":null},"geometry":{"type":"LineString","coordinates":[[-112.2051358,33.7122629,0.0],[-112.2051366,33.7122629,0.0],[-112.2053102,33.7122553,0.0],[-112.205364,33.7122515,0.0]]}},
{"type":"Feature","properties":{"id":1008552,"type":"line-thin","subtype":"dashed","color":"white","creator":null,"modifier":null,"att_editor":null},"geometry":{"type":"LineString","coordinates":[[-112.205364,33.7122515,0.0],[-112.205446,33.7122459,0.0],[-112.2055757,33.7122341,0.0]]}},
{"type":"Feature","properties":{"id":1008554,"type":"line-thin","subtype":"dashed","color":"white","creator":null,"modifier":null,"att_editor":null},"geometry":{"type":"LineString","coordinates":[[-112.2000945,33.7123187,0.0],[-112.2001319,33.7123183,0.0]]}},
{"type":"Feature","properties":{"id":1008556,"type":"line-thin","subtype":"dashed","color":"white","creator":null,"modifier":null,"att_editor":null},"geometry":{"type":"LineString","coordinates":[[-112.2001319,33.7123183,0.0],[-112.2002489,33.7123171,0.0],[-112.2003883,33.7123141,0.0]]}},
{"type":"Feature","properties":{"id":1008558,"type":"line-thin","subtype":"dashed","color":"white","creator":null,"modifier":null,"att_editor":null},"geometry":{"type":"LineString","coordinates":[[-112.2003883,33.7123141,0.0],[-112.2006565,33.7123086,0.0],[-112.2007895,33.7123058,0.0]]}},
{"type":"Feature","properties":{"id":1008560,"type":"line-thin","subtype":"dashed","color":"white","creator":null,"modifier":null,"att_editor":null},"geometry":{"type":"LineString","coordinates":[[-112.2007895,33.7123058,0.0],[-112.2008629,33.7123043,0.0]]}},
{"type":"Feature","properties":{"id":1008562,"type":"line-thin","subtype":"dashed","color":"white","creator":null,"modifier":null,"att_editor":null},"geometry":{"type":"LineString","coordinates":[[-112.2008629,33.7123043,0.0],[-112.201051,33.7123005,0.0]]}},
{"type":"Feature","properties":{"id":1008564,"type":"line-thin","subtype":"dashed","color":"white","creator":null,"modifier":null,"att_editor":null},"geometry":{"type":"LineString","coordinates":[[-112.201051,33.7123005,0.0],[-112.201137,33.7122987,0.0]]}},
{"type":"Feature","properties":{"id":1008566,"type":"line-thin","subtype":"dashed","color":"white","creator":null,"modifier":null,"att_editor":null},"geometry":{"type":"LineString","coordinates":[[-112.201137,33.7122987,0.0],[-112.2011641,33.7122982,0.0],[-112.2011961,33.7122973,0.0]]}},
{"type":"Feature","properties":{"id":1008568,"type":"line-thin","subtype":"dashed","color":"white","creator":null,"modifier":null,"att_editor":null},"geometry":{"type":"LineString","coordinates":[[-112.2011961,33.7122973,0.0],[-112.2013119,33.7122944,0.0]]}},
{"type":"Feature","properties":{"id":1008570,"type":"line-thin","subtype":"dashed","color":"white","creator":null,"modifier":null,"att_editor":null},"geometry":{"type":"LineString","coordinates":[[-112.2013119,33.7122944,0.0],[-112.2016204,33.7122865,0.0]]}},
{"type":"Feature","properties":{"id":1008572,"type":"line-thin","subtype":"dashed","color":"white","creator":null,"modifier":null,"att_editor":null},"geometry":{"type":"LineString","coordinates":[[-112.2000594,33.7121619,0.0],[-112.1999752,33.7121627,0.0]]}},
{"type":"Feature","properties":{"id":1008574,"type":"line-thin","subtype":"dashed","color":"white","creator":null,"modifier":null,"att_editor":null},"geometry":{"type":"LineString","coordinates":[[-112.1999752,33.7121627,0.0],[-112.1998187,33.7121641,0.0]]}},
{"type":"Feature","properties":{"id":1008576,"type":"line-thin","subtype":"dashed","color":"white","creator":null,"modifier":null,"att_editor":null},"geometry":{"type":"LineString","coordinates":[[-112.1998187,33.7121641,0.0],[-112.1997449,33.7121647,0.0]]}},
{"type":"Feature","properties":{"id":1008578,"type":"line-thin","subtype":"dashed","color":"white","creator":null,"modifier":null,"att_editor":null},"geometry":{"type":"LineString","coordinates":[[-112.1997449,33.7121647,0.0],[-112.199732,33.7121649,0.0],[-112.1994105,33.7121682,0.0]]}},
{"type":"Feature","properties":{"id":1008580,"type":"line-thin","subtype":"dashed","color":"white","creator":null,"modifier":null,"att_editor":null},"geometry":{"type":"LineString","coordinates":[[-112.1977065,33.712295,0.0],[-112.197774,33.7122959,0.0]]}},
{"type":"Feature","properties":{"id":1008582,"type":"line-thin","subtype":"dashed","color":"white","creator":null,"modifier":null,"att_editor":null},"geometry":{"type":"LineString","coordinates":[[-112.197774,33.7122959,0.0],[-112.197983,33.7122987,0.0],[-112.1984179,33.7123061,0.0],[-112.1984721,33.7123069,0.0]]}},
{"type":"Feature","properties":{"id":1008584,"type":"line-thin","subtype":"dashed","color":"white","creator":null,"modifier":null,"att_editor":null},"geometry":{"type":"LineString","coordinates":[[-112.1990811,33.7121722,0.0],[-112.1987656,33.7121755,0.0],[-112.198554,33.7121769,0.0]]}},
{"type":"Feature","properties":{"id":1008706,"type":"line-thin","subtype":"solid","color":"white","creator":null,"modifier":null,"att_editor":null},"geometry":{"type":"LineString","coordinates":[[-112.2026333,33.7120516,0.0],[-112.2023674,33.7120522,0.0]]}},
{"type":"Feature","properties":{"id":1008708,"type":"line-thin","subtype":"solid","color":"white","creator":null,"modifier":null,"att_editor":null},"geometry":{"type":"LineString","coordinates":[[-112.2007885,33.712095,0.0],[-112.2007593,33.7120954,0.0],[-112.2006255,33.7120972,0.0],[-112.2005564,33.7120975,0.0]]}},
{"type":"Feature","properties":{"id":1008710,"type":"line-thin","subtype":"solid","color":"white","creator":null,"modifier":null,"att_editor":null},"geometry":{"type":"LineString","coordinates":[[-112.2005564,33.7120975,0.0],[-112.200416,33.7120983,0.0],[-112.2001211,33.7121002,0.0],[-112.2000595,33.7121004,0.0]]}},
{"type":"Feature","properties":{"id":1008712,"type":"line-thin","subtype":"solid","color":"white","creator":null,"modifier":null,"att_editor":null},"geometry":{"type":"LineString","coordinates":[[-112.2000595,33.7121004,0.0],[-112.1999743,33.7121007,0.0]]}},
{"type":"Feature","properties":{"id":1008714,"type":"line-thin","subtype":"solid","color":"white","creator":null,"modifier":null,"att_editor":null},"geometry":{"type":"LineString","coordinates":[[-112.1999743,33.7121007,0.0],[-112.1998429,33.7121013,0.0],[-112.1998182,33.7121015,0.0]]}},
{"type":"Feature","properties":{"id":1008716,"type":"line-thin","subtype":"solid","color":"white","creator":null,"modifier":null,"att_editor":null},"geometry":{"type":"LineString","coordinates":[[-112.1998182,33.7121015,0.0],[-112.1997446,33.7121021,0.0]]}},
{"type":"Feature","properties":{"id":1008718,"type":"line-thin","subtype":"solid","color":"white","creator":null,"modifier":null,"att_editor":null},"geometry":{"type":"LineString","coordinates":[[-112.1997446,33.7121021,0.0],[-112.1994091,33.7121051,0.0]]}},
{"type":"Feature","properties":{"id":1008720,"type":"line-thin","subtype":"solid","color":"white","creator":null,"modifier":null,"att_editor":null},"geometry":{"type":"LineString","coordinates":[[-112.2014854,33.7120632,0.0],[-112.201483,33.7120634,0.0],[-112.201439,33.7120643,0.0]]}},
{"type":"Feature","properties":{"id":1008722,"type":"line-thin","subtype":"solid","color":"white","creator":null,"modifier":null,"att_editor":null},"geometry":{"type":"LineString","coordinates":[[-112.201439,33.7120643,0.0],[-112.201275,33.712068,0.0],[-112.2010496,33.7120721,0.0]]}},
{"type":"Feature","properties":{"id":1008724,"type":"line-thin","subtype":"solid","color":"white","creator":null,"modifier":null,"att_editor":null},"geometry":{"type":"LineString","coordinates":[[-112.1990793,33.7121075,0.0],[-112.1987486,33.7121096,0.0],[-112.1985521,33.71211,0.0]]}},
{"type":"Feature","properties":{"id":1008726,"type":"line-thin","subtype":"solid","color":"white","creator":null,"modifier":null,"att_editor":null},"geometry":{"type":"LineString","coordinates":[[-112.1985521,33.71211,0.0],[-112.198519,33.7121102,0.0],[-112.1982202,33.7121114,0.0],[-112.1982129,33.7121114,0.0]]}},
{"type":"Feature","properties":{"id":1008728,"type":"line-thin","subtype":"solid","color":"white","creator":null,"modifier":null,"att_editor":null},"geometry":{"type":"LineString","coordinates":[[-112.1982129,33.7121114,0.0],[-112.1979393,33.7121131,0.0],[-112.1977334,33.7121143,0.0]]}},
{"type":"Feature","properties":{"id":1008730,"type":"line-thin","subtype":"solid","color":"white","creator":null,"modifier":null,"att_editor":null},"geometry":{"type":"LineString","coordinates":[[-112.2026339,33.712067,0.0],[-112.2023675,33.7120685,0.0]]}},
{"type":"Feature","properties":{"id":1008732,"type":"line-thin","subtype":"solid","color":"white","creator":null,"modifier":null,"att_editor":null},"geometry":{"type":"LineString","coordinates":[[-112.2021049,33.7120702,0.0],[-112.2019969,33.7120709,0.0],[-112.2019067,33.7120723,0.0]]}},
{"type":"Feature","properties":{"id":1008734,"type":"line-thin","subtype":"solid","color":"white","creator":null,"modifier":null,"att_editor":null},"geometry":{"type":"LineString","coordinates":[[-112.2014864,33.7120804,0.0],[-112.2014841,33.7120805,0.0],[-112.2014403,33.7120813,0.0]]}},
{"type":"Feature","properties":{"id":1008736,"type":"line-thin","subtype":"solid","color":"white","creator":null,"modifier":null,"att_editor":null},"geometry":{"type":"LineString","coordinates":[[-112.2014403,33.7120813,0.0],[-112.2011285,33.7120877,0.0],[-112.2010509,33.7120895,0.0]]}},
{"type":"Feature","properties":{"id":1008738,"type":"line-thin","subtype":"solid","color":"white","creator":null,"modifier":null,"att_editor":null},"geometry":{"type":"LineString","coordinates":[[-112.1997447,33.7121923,0.0],[-112.199411,33.712196,0.0]]}},
{"type":"Feature","properties":{"id":1008740,"type":"line-thin","subtype":"solid","color":"white","creator":null,"modifier":null,"att_editor":null},"geometry":{"type":"LineString","coordinates":[[-112.199411,33.712196,0.0],[-112.1993102,33.7121972,0.0]]}},
{"type":"Feature","properties":{"id":1008742,"type":"line-thin","subtype":"solid","color":"white","creator":null,"modifier":null,"att_editor":null},"geometry":{"type":"LineString","coordinates":[[-112.1997447,33.7121923,0.0],[-112.1995783,33.7122014,0.0],[-112.1995629,33.7122026,0.0],[-112.1995629,33.7122027,0.0]]}},
{"type":"Feature","properties":{"id":1008744,"type":"line-thin","subtype":"solid","color":"white","creator":null,"modifier":null,"att_editor":null},"geometry":{"type":"LineString","coordinates":[[-112.1995629,33.7122027,0.0],[-112.1994379,33.7122141,0.0],[-112.199408,33.7122183,0.0]]}},
{"type":"Feature","properties":{"id":1008746,"type":"line-thin","subtype":"solid","color":"white","creator":null,"modifier":null,"att_editor":null},"geometry":{"type":"LineString","coordinates":[[-112.1982159,33.7122122,0.0],[-112.1977105,33.7122193,0.0]]}},
{"type":"Feature","properties":{"id":1008748,"type":"line-thin","subtype":"solid","color":"white","creator":null,"modifier":null,"att_editor":null},"geometry":{"type":"LineString","coordinates":[[-112.1988196,33.7122856,0.0],[-112.1991406,33.7122891,0.0]]}},
{"type":"Feature","properties":{"id":1008750,"type":"line-thin","subtype":"solid","color":"white","creator":null,"modifier":null,"att_editor":null},"geometry":{"type":"LineString","coordinates":[[-112.1988196,33.7122856,0.0],[-112.1991372,33.7122322,0.0]]}},
{"type":"Feature","properties":{"id":1008752,"type":"line-thin","subtype":"solid","color":"white","creator":null,"modifier":null,"att_editor":null},"geometry":{"type":"LineString","coordinates":[[-112.1977035,33.7123518,0.0],[-112.1977724,33.7123529,0.0]]}},
{"type":"Feature","properties":{"id":1008754,"type":"line-thin","subtype":"solid","color":"white","creator":null,"modifier":null,"att_editor":null},"geometry":{"type":"LineString","coordinates":[[-112.1977724,33.7123529,0.0],[-112.1980344,33.7123575,0.0],[-112.1983809,33.7123634,0.0],[-112.1984683,33.712365,0.0]]}},
{"type":"Feature","properties":{"id":1008756,"type":"line-thin","subtype":"solid","color":"white","creator":null,"modifier":null,"att_editor":null},"geometry":{"type":"LineString","coordinates":[[-112.1984683,33.712365,0.0],[-112.1987413,33.7123702,0.0],[-112.198817,33.7123714,0.0]]}},
{"type":"Feature","properties":{"id":1008758,"type":"line-thin","subtype":"solid","color":"white","creator":null,"modifier":null,"att_editor":null},"geometry":{"type":"LineString","coordinates":[[-112.198817,33.7123714,0.0],[-112.1990603,33.7123754,0.0],[-112.1991379,33.7123768,0.0]]}},
{"type":"Feature","properties":{"id":1008760,"type":"line-thin","subtype":"solid","color":"white","creator":null,"modifier":null,"att_editor":null},"geometry":{"type":"LineString","coordinates":[[-112.1991379,33.7123768,0.0],[-112.199189,33.7123777,0.0]]}},
{"type":"Feature","properties":{"id":1008762,"type":"line-thin","subtype":"solid","color":"white","creator":null,"modifier":null,"att_editor":null},"geometry":{"type":"LineString","coordinates":[[-112.199189,33.7123777,0.0],[-112.1993868,33.7123814,0.0],[-112.1993876,33.7123814,0.0]]}},
{"type":"Feature","properties":{"id":1008764,"type":"line-thin","subtype":"solid","color":"white","creator":null,"modifier":null,"att_editor":null},"geometry":{"type":"LineString","coordinates":[[-112.1993876,33.7123814,0.0],[-112.1996141,33.7123802,0.0]]}},
{"type":"Feature","properties":{"id":1008766,"type":"line-thin","subtype":"solid","color":"white","creator":null,"modifier":null,"att_editor":null},"geometry":{"type":"LineString","coordinates":[[-112.1996141,33.7123802,0.0],[-112.1996185,33.7123802,0.0],[-112.1998631,33.7123775,0.0],[-112.1998632,33.7123775,0.0]]}},
{"type":"Feature","properties":{"id":1008768,"type":"line-thin","subtype":"solid","color":"white","creator":null,"modifier":null,"att_editor":null},"geometry":{"type":"LineString","coordinates":[[-112.1977727,33.712369,0.0],[-112.1979073,33.7123707,0.0],[-112.1982069,33.7123771,0.0],[-112.1984675,33.7123821,0.0]]}},
{"type":"Feature","properties":{"id":1008770,"type":"line-thin","subtype":"solid","color":"white","creator":null,"modifier":null,"att_editor":null},"geometry":{"type":"LineString","coordinates":[[-112.1984675,33.7123821,0.0],[-112.1985215,33.7123832,0.0],[-112.1988166,33.7123884,0.0]]}},
{"type":"Feature","properties":{"id":1008772,"type":"line-thin","subtype":"solid","color":"white","creator":null,"modifier":null,"att_editor":null},"geometry":{"type":"LineString","coordinates":[[-112.1988166,33.7123884,0.0],[-112.1988307,33.7123887,0.0],[-112.1991377,33.7123943,0.0]]}},
{"type":"Feature","properties":{"id":1008774,"type":"line-thin","subtype":"solid","color":"white","creator":null,"modifier":null,"att_editor":null},"geometry":{"type":"LineString","coordinates":[[-112.1991377,33.7123943,0.0],[-112.1991892,33.7123953,0.0]]}},
{"type":"Feature","properties":{"id":1008776,"type":"line-thin","subtype":"solid","color":"white","creator":null,"modifier":null,"att_editor":null},"geometry":{"type":"LineString","coordinates":[[-112.2022502,33.7123511,0.0],[-112.2022548,33.7123508,0.0],[-112.202607,33.7123489,0.0],[-112.2028566,33.7123475,0.0]]}},
{"type":"Feature","properties":{"id":1008778,"type":"line-thin","subtype":"solid","color":"white","creator":null,"modifier":null,"att_editor":null},"geometry":{"type":"LineString","coordinates":[[-112.2028566,33.7123475,0.0],[-112.2028934,33.7123474,0.0]]}},
{"type":"Feature","properties":{"id":1008780,"type":"line-thin","subtype":"solid","color":"white","creator":null,"modifier":null,"att_editor":null},"geometry":{"type":"LineString","coordinates":[[-112.2022499,33.7123342,0.0],[-112.2022547,33.7123341,0.0],[-112.2026151,33.7123321,0.0],[-112.2028559,33.7123317,0.0]]}},
{"type":"Feature","properties":{"id":1008782,"type":"line-thin","subtype":"solid","color":"white","creator":null,"modifier":null,"att_editor":null},"geometry":{"type":"LineString","coordinates":[[-112.2028559,33.7123317,0.0],[-112.2028928,33.7123317,0.0]]}},
{"type":"Feature","properties":{"id":1008784,"type":"line-thin","subtype":"solid","color":"white","creator":null,"modifier":null,"att_editor":null},"geometry":{"type":"LineString","coordinates":[[-112.201646,33.7123698,0.0],[-112.2017727,33.712372,0.0],[-112.2019998,33.7123766,0.0]]}},
{"type":"Feature","properties":{"id":1008786,"type":"line-thin","subtype":"solid","color":"white","creator":null,"modifier":null,"att_editor":null},"geometry":{"type":"LineString","coordinates":[[-112.2019998,33.7123766,0.0],[-112.2020742,33.7123781,0.0],[-112.2021027,33.7123855,0.0],[-112.2021204,33.7123967,0.0]]}},
{"type":"Feature","properties":{"id":1008788,"type":"line-thin","subtype":"solid","color":"white","creator":null,"modifier":null,"att_editor":null},"geometry":{"type":"LineString","coordinates":[[-112.201646,33.7123698,0.0],[-112.2017044,33.712368,0.0],[-112.2018764,33.7123623,0.0],[-112.2020002,33.7123589,0.0]]}},
{"type":"Feature","properties":{"id":1008790,"type":"line-thin","subtype":"solid","color":"white","creator":null,"modifier":null,"att_editor":null},"geometry":{"type":"LineString","coordinates":[[-112.2016454,33.7123534,0.0],[-112.2017487,33.7123503,0.0],[-112.2019986,33.7123422,0.0]]}},
{"type":"Feature","properties":{"id":1008792,"type":"line-thin","subtype":"solid","color":"white","creator":null,"modifier":null,"att_editor":null},"geometry":{"type":"LineString","coordinates":[[-112.2011413,33.712385,0.0],[-112.2011994,33.7123836,0.0]]}},
{"type":"Feature","properties":{"id":1008794,"type":"line-thin","subtype":"solid","color":"white","creator":null,"modifier":null,"att_editor":null},"geometry":{"type":"LineString","coordinates":[[-112.2011994,33.7123836,0.0],[-112.2012172,33.7123832,0.0],[-112.2013209,33.7123807,0.0]]}},
{"type":"Feature","properties":{"id":1008796,"type":"line-thin","subtype":"solid","color":"white","creator":null,"modifier":null,"att_editor":null},"geometry":{"type":"LineString","coordinates":[[-112.2010554,33.7123712,0.0],[-112.2010577,33.7123712,0.0],[-112.2011397,33.7123686,0.0]]}},
{"type":"Feature","properties":{"id":1008798,"type":"line-thin","subtype":"solid","color":"white","creator":null,"modifier":null,"att_editor":null},"geometry":{"type":"LineString","coordinates":[[-112.2011397,33.7123686,0.0],[-112.2011988,33.7123668,0.0]]}},
{"type":"Feature","properties":{"id":1008800,"type":"line-thin","subtype":"solid","color":"white","creator":null,"modifier":null,"att_editor":null},"geometry":{"type":"LineString","coordinates":[[-112.2011988,33.7123668,0.0],[-112.2013191,33.7123632,0.0]]}},
{"type":"Feature","properties":{"id":1008802,"type":"line-thin","subtype":"solid","color":"white","creator":null,"modifier":null,"att_editor":null},"geometry":{"type":"LineString","coordinates":[[-112.2001329,33.7123765,0.0],[-112.2001868,33.7123763,0.0],[-112.2003895,33.7123751,0.0]]}},
{"type":"Feature","properties":{"id":1008804,"type":"line-thin","subtype":"solid","color":"white","creator":null,"modifier":null,"att_editor":null},"geometry":{"type":"LineString","coordinates":[[-112.2003895,33.7123751,0.0],[-112.2005741,33.7123741,0.0],[-112.2007922,33.7123725,0.0]]}},
{"type":"Feature","properties":{"id":1008806,"type":"line-thin","subtype":"solid","color":"white","creator":null,"modifier":null,"att_editor":null},"geometry":{"type":"LineString","coordinates":[[-112.2014465,33.7121681,0.0],[-112.2010537,33.7121752,0.0]]}},
{"type":"Feature","properties":{"id":1008808,"type":"line-thin","subtype":"solid","color":"white","creator":null,"modifier":null,"att_editor":null},"geometry":{"type":"LineString","coordinates":[[-112.2014465,33.7121681,0.0],[-112.201089,33.7122108,0.0]]}},
{"type":"Feature","properties":{"id":1008810,"type":"line-thin","subtype":"solid","color":"white","creator":null,"modifier":null,"att_editor":null},"geometry":{"type":"LineString","coordinates":[[-112.2003888,33.7122867,0.0],[-112.2007885,33.7122784,0.0]]}},
{"type":"Feature","properties":{"id":1008812,"type":"line-thin","subtype":"solid","color":"white","creator":null,"modifier":null,"att_editor":null},"geometry":{"type":"LineString","coordinates":[[-112.2007885,33.7122784,0.0],[-112.2008641,33.712277,0.0]]}},
{"type":"Feature","properties":{"id":1008814,"type":"line-thin","subtype":"solid","color":"white","creator":null,"modifier":null,"att_editor":null},"geometry":{"type":"LineString","coordinates":[[-112.2003888,33.7122867,0.0],[-112.2005691,33.7122811,0.0],[-112.2005697,33.712281,0.0]]}},
{"type":"Feature","properties":{"id":1008816,"type":"line-thin","subtype":"solid","color":"white","creator":null,"modifier":null,"att_editor":null},"geometry":{"type":"LineString","coordinates":[[-112.2005697,33.712281,0.0],[-112.2006709,33.712272,0.0],[-112.2007522,33.7122606,0.0]]}},
{"type":"Feature","properties":{"id":1008818,"type":"line-thin","subtype":"solid","color":"white","creator":null,"modifier":null,"att_editor":null},"geometry":{"type":"LineString","coordinates":[[-112.2020567,33.7122199,0.0],[-112.2022484,33.7122195,0.0]]}},
{"type":"Feature","properties":{"id":1008820,"type":"line-thin","subtype":"solid","color":"white","creator":null,"modifier":null,"att_editor":null},"geometry":{"type":"LineString","coordinates":[[-112.2022484,33.7122195,0.0],[-112.2025466,33.7122189,0.0],[-112.2028517,33.7122179,0.0]]}},
{"type":"Feature","properties":{"id":1008822,"type":"line-thin","subtype":"solid","color":"white","creator":null,"modifier":null,"att_editor":null},"geometry":{"type":"LineString","coordinates":[[-112.2020574,33.7122496,0.0],[-112.2022486,33.7122494,0.0]]}},
{"type":"Feature","properties":{"id":1008824,"type":"line-thin","subtype":"solid","color":"white","creator":null,"modifier":null,"att_editor":null},"geometry":{"type":"LineString","coordinates":[[-112.2022486,33.7122494,0.0],[-112.2025013,33.7122493,0.0],[-112.2028523,33.712248,0.0]]}},
{"type":"Feature","properties":{"id":1008826,"type":"line-thin","subtype":"solid","color":"white","creator":null,"modifier":null,"att_editor":null},"geometry":{"type":"LineString","coordinates":[[-112.2028523,33.712248,0.0],[-112.2028892,33.712248,0.0]]}},
{"type":"Feature","properties":{"id":1008828,"type":"line-thin","subtype":"solid","color":"white","creator":null,"modifier":null,"att_editor":null},"geometry":{"type":"LineString","coordinates":[[-112.2034068,33.7123288,0.0],[-112.2036766,33.7123281,0.0],[-112.2039249,33.7123269,0.0],[-112.2042799,33.7123251,0.0],[-112.2047222,33.712324,0.0],[-112.2047493,33.7123237,0.0],[-112.2047494,33.7123237,0.0]]}},
{"type":"Feature","properties":{"id":1008830,"type":"line-thin","subtype":"solid","color":"white","creator":null,"modifier":null,"att_editor":null},"geometry":{"type":"LineString","coordinates":[[-112.2047494,33.7123237,0.0],[-112.2049479,33.712322,0.0]]}},
{"type":"Feature","properties":{"id":1008832,"type":"line-thin","subtype":"solid","color":"white","creator":null,"modifier":null,"att_editor":null},"geometry":{"type":"LineString","coordinates":[[-112.2049479,33.712322,0.0],[-112.2050094,33.7123215,0.0],[-112.2051401,33.7123173,0.0]]}},
{"type":"Feature","properties":{"id":1008834,"type":"line-thin","subtype":"solid","color":"white","creator":null,"modifier":null,"att_editor":null},"geometry":{"type":"LineString","coordinates":[[-112.2051401,33.7123173,0.0],[-112.2052473,33.712314,0.0],[-112.2053698,33.7123061,0.0]]}},
{"type":"Feature","properties":{"id":1008836,"type":"line-thin","subtype":"solid","color":"white","creator":null,"modifier":null,"att_editor":null},"geometry":{"type":"LineString","coordinates":[[-112.2053698,33.7123061,0.0],[-112.2054222,33.7123028,0.0],[-112.2055232,33.712295,0.0],[-112.2055814,33.7122887,0.0]]}},
{"type":"Feature","properties":{"id":1008838,"type":"line-thin","subtype":"solid","color":"white","creator":null,"modifier":null,"att_editor":null},"geometry":{"type":"LineString","coordinates":[[-112.2055432,33.712078,0.0],[-112.2053433,33.7120936,0.0],[-112.2052817,33.7120969,0.0]]}},
{"type":"Feature","properties":{"id":1008840,"type":"line-thin","subtype":"solid","color":"white","creator":null,"modifier":null,"att_editor":null},"geometry":{"type":"LineString","coordinates":[[-112.2052817,33.7120969,0.0],[-112.2052083,33.7121009,0.0],[-112.2050603,33.7121067,0.0],[-112.2049956,33.7121077,0.0]]}},
{"type":"Feature","properties":{"id":1008842,"type":"line-thin","subtype":"solid","color":"white","creator":null,"modifier":null,"att_editor":null},"geometry":{"type":"LineString","coordinates":[[-112.2038408,33.7120962,0.0],[-112.2038317,33.712096,0.0],[-112.2035949,33.7120912,0.0],[-112.2033482,33.712086,0.0]]}},
{"type":"Feature","properties":{"id":1008844,"type":"line-thin","subtype":"solid","color":"white","creator":null,"modifier":null,"att_editor":null},"geometry":{"type":"LineString","coordinates":[[-112.2038405,33.7120822,0.0],[-112.2038295,33.712082,0.0],[-112.2035411,33.7120769,0.0],[-112.203348,33.7120737,0.0]]}},
{"type":"Feature","properties":{"id":1008846,"type":"line-thin","subtype":"solid","color":"white","creator":null,"modifier":null,"att_editor":null},"geometry":{"type":"LineString","coordinates":[[-112.2046775,33.7121099,0.0],[-112.2046744,33.7121099,0.0],[-112.2044531,33.7121075,0.0],[-112.2044518,33.7121074,0.0]]}},
{"type":"Feature","properties":{"id":1008848,"type":"line-thin","subtype":"solid","color":"white","creator":null,"modifier":null,"att_editor":null},"geometry":{"type":"LineString","coordinates":[[-112.2044518,33.7121074,0.0],[-112.2043606,33.7121053,0.0]]}},
{"type":"Feature","properties":{"id":1008850,"type":"line-thin","subtype":"solid","color":"white","creator":null,"modifier":null,"att_editor":null},"geometry":{"type":"LineString","coordinates":[[-112.2046776,33.712096,0.0],[-112.2046568,33.7120959,0.0],[-112.2045271,33.7120945,0.0],[-112.2044521,33.7120932,0.0]]}},
{"type":"Feature","properties":{"id":1008852,"type":"line-thin","subtype":"solid","color":"white","creator":null,"modifier":null,"att_editor":null},"geometry":{"type":"LineString","coordinates":[[-112.2044521,33.7120932,0.0],[-112.2043622,33.7120917,0.0]]}},
{"type":"Feature","properties":{"id":1008854,"type":"line-thin","subtype":"solid","color":"white","creator":null,"modifier":null,"att_editor":null},"geometry":{"type":"LineString","coordinates":[[-112.2039948,33.7121921,0.0],[-112.203842,33.7121883,0.0]]}},
{"type":"Feature","properties":{"id":1008856,"type":"line-thin","subtype":"solid","color":"white","creator":null,"modifier":null,"att_editor":null},"geometry":{"type":"LineString","coordinates":[[-112.203842,33.7121883,0.0],[-112.2037284,33.7121856,0.0],[-112.2035274,33.7121809,0.0],[-112.2033493,33.712176,0.0]]}},
{"type":"Feature","properties":{"id":1008858,"type":"line-thin","subtype":"solid","color":"white","creator":null,"modifier":null,"att_editor":null},"geometry":{"type":"LineString","coordinates":[[-112.2039948,33.7121921,0.0],[-112.203842,33.7121936,0.0]]}},
{"type":"Feature","properties":{"id":1008860,"type":"line-thin","subtype":"solid","color":"white","creator":null,"modifier":null,"att_editor":null},"geometry":{"type":"LineString","coordinates":[[-112.203842,33.7121936,0.0],[-112.2036951,33.7121951,0.0],[-112.203403,33.712198,0.0]]}},
{"type":"Feature","properties":{"id":1008862,"type":"line-thin","subtype":"solid","color":"white","creator":null,"modifier":null,"att_editor":null},"geometry":{"type":"LineString","coordinates":[[-112.2051348,33.7122338,0.0],[-112.2053297,33.7122241,0.0],[-112.2053608,33.7122217,0.0]]}},
{"type":"Feature","properties":{"id":1008864,"type":"line-thin","subtype":"solid","color":"white","creator":null,"modifier":null,"att_editor":null},"geometry":{"type":"LineString","coordinates":[[-112.2053608,33.7122217,0.0],[-112.2054832,33.7122125,0.0],[-112.205573,33.7122052,0.0]]}},
{"type":"Feature","properties":{"id":1010076,"type":"line-thin","subtype":"solid","color":"white","creator":null,"modifier":null,"att_editor":null},"geometry":{"type":"LineString","coordinates":[[-112.1977009,33.7124006,0.0],[-112.1977217,33.7123855,0.0],[-112.1977477,33.7123739,0.0],[-112.1977727,33.712369,0.0]]}},
{"type":"Feature","properties":{"id":1010224,"type":"line-thin","subtype":"solid","color":"yellow","creator":null,"modifier":null,"att_editor":null},"geometry":{"type":"LineString","coordinates":[[-112.1985542,33.7122072,0.0],[-112.1984978,33.7122143,0.0],[-112.1984135,33.7122297,0.0],[-112.1983113,33.7122523,0.0],[-112.1982448,33.7122663,0.0],[-112.1982223,33.7122692,0.0]]}},
{"type":"Feature","properties":{"id":1010226,"type":"line-thin","subtype":"solid","color":"yellow","creator":null,"modifier":null,"att_editor":null},"geometry":{"type":"LineString","coordinates":[[-112.1982223,33.7122692,0.0],[-112.1982133,33.7122704,0.0],[-112.1981403,33.7122695,0.0],[-112.1979469,33.7122651,0.0],[-112.1977083,33.7122597,0.0]]}},
{"type":"Feature","properties":{"id":1010228,"type":"line-thin","subtype":"solid","color":"yellow","creator":null,"modifier":null,"att_editor":null},"geometry":{"type":"LineString","coordinates":[[-112.1977082,33.7122619,0.0],[-112.1977748,33.7122632,0.0]]}},
{"type":"Feature","properties":{"id":1010230,"type":"line-thin","subtype":"solid","color":"yellow","creator":null,"modifier":null,"att_editor":null},"geometry":{"type":"LineString","coordinates":[[-112.1977748,33.7122632,0.0],[-112.1978652,33.7122651,0.0],[-112.1980018,33.7122681,0.0],[-112.1982123,33.712273,0.0],[-112.198385,33.7122766,0.0],[-112.1984729,33.7122778,0.0]]}},
{"type":"Feature","properties":{"id":1010232,"type":"line-thin","subtype":"solid","color":"yellow","creator":null,"modifier":null,"att_editor":null},"geometry":{"type":"LineString","coordinates":[[-112.1987901,33.7122057,0.0],[-112.1986107,33.7122084,0.0],[-112.1985544,33.7122093,0.0],[-112.1984982,33.7122164,0.0],[-112.1984141,33.7122316,0.0],[-112.1983119,33.7122544,0.0],[-112.1982453,33.7122684,0.0],[-112.1982436,33.7122686,0.0]]}},
{"type":"Feature","properties":{"id":1010234,"type":"line-thin","subtype":"solid","color":"yellow","creator":null,"modifier":null,"att_editor":null},"geometry":{"type":"LineString","coordinates":[[-112.1982434,33.7122715,0.0],[-112.1983851,33.7122746,0.0],[-112.1984727,33.7122758,0.0],[-112.1985337,33.7122692,0.0],[-112.1985945,33.7122544,0.0],[-112.1986651,33.7122343,0.0],[-112.1987287,33.7122184,0.0],[-112.1987876,33.7122079,0.0],[-112.1987902,33.7122077,0.0]]}},
{"type":"Feature","properties":{"id":1010968,"type":"line-thin","subtype":"solid","color":"yellow","creator":null,"modifier":null,"att_editor":null},"geometry":{"type":"LineString","coordinates":[[-112.1991347,33.7121988,0.0],[-112.1990814,33.7121994,0.0]]}},
{"type":"Feature","properties":{"id":1010970,"type":"line-thin","subtype":"solid","color":"yellow","creator":null,"modifier":null,"att_editor":null},"geometry":{"type":"LineString","coordinates":[[-112.1990814,33.7121994,0.0],[-112.1989431,33.7122014,0.0],[-112.1988232,33.7122031,0.0],[-112.1986107,33.7122063,0.0],[-112.1985542,33.7122072,0.0]]}},
{"type":"Feature","properties":{"id":1010972,"type":"line-thin","subtype":"solid","color":"yellow","creator":null,"modifier":null,"att_editor":null},"geometry":{"type":"LineString","coordinates":[[-112.1984729,33.7122778,0.0],[-112.1985342,33.7122712,0.0],[-112.1985953,33.7122564,0.0],[-112.1986658,33.7122363,0.0],[-112.1987293,33.7122205,0.0],[-112.198788,33.71221,0.0],[-112.1988102,33.7122081,0.0]]}},
{"type":"Feature","properties":{"id":1010974,"type":"line-thin","subtype":"solid","color":"yellow","creator":null,"modifier":null,"att_editor":null},"geometry":{"type":"LineString","coordinates":[[-112.1988102,33.7122081,0.0],[-112.1988102,33.7122079,0.0],[-112.1988495,33.7122049,0.0],[-112.1990017,33.7122028,0.0],[-112.1991342,33.7122012,0.0]]}},
{"type":"Feature","properties":{"id":1011064,"type":"line-thin","subtype":"dotted","color":"white","creator":null,"modifier":null,"att_editor":null},"geometry":{"type":"LineString","coordinates":[[-112.2028756,33.7120509,0.0],[-112.2027598,33.7120512,0.0]]}},
{"type":"Feature","properties":{"id":1011066,"type":"line-thin","subtype":"dotted","color":"white","creator":null,"modifier":null,"att_editor":null},"geometry":{"type":"LineString","coordinates":[[-112.2027598,33.7120512,0.0],[-112.2026333,33.7120516,0.0]]}},
{"type":"Feature","properties":{"id":1011068,"type":"line-thin","subtype":"dotted","color":"white","creator":null,"modifier":null,"att_editor":null},"geometry":{"type":"LineString","coordinates":[[-112.2028813,33.7120656,0.0],[-112.2027599,33.7120662,0.0]]}},
{"type":"Feature","properties":{"id":1011070,"type":"line-thin","subtype":"dotted","color":"white","creator":null,"modifier":null,"att_editor":null},"geometry":{"type":"LineString","coordinates":[[-112.2027599,33.7120662,0.0],[-112.2026339,33.712067,0.0]]}},
{"type":"Feature","properties":{"id":1011072,"type":"line-thin","subtype":"dotted","color":"white","creator":null,"modifier":null,"att_editor":null},"geometry":{"type":"LineString","coordinates":[[-112.2023675,33.7120685,0.0],[-112.202272,33.7120691,0.0],[-112.2021049,33.7120702,0.0]]}},
{"type":"Feature","properties":{"id":1011074,"type":"line-thin","subtype":"dotted","color":"white","creator":null,"modifier":null,"att_editor":null},"geometry":{"type":"LineString","coordinates":[[-112.2019067,33.7120723,0.0],[-112.2017545,33.7120749,0.0],[-112.2017516,33.7120749,0.0]]}},
{"type":"Feature","properties":{"id":1011076,"type":"line-thin","subtype":"dotted","color":"white","creator":null,"modifier":null,"att_editor":null},"geometry":{"type":"LineString","coordinates":[[-112.2017516,33.7120749,0.0],[-112.2014864,33.7120804,0.0]]}},
{"type":"Feature","properties":{"id":1011078,"type":"line-thin","subtype":"dotted","color":"white","creator":null,"modifier":null,"att_editor":null},"geometry":{"type":"LineString","coordinates":[[-112.2019059,33.7120565,0.0],[-112.201751,33.712059,0.0]]}},
{"type":"Feature","properties":{"id":1011080,"type":"line-thin","subtype":"dotted","color":"white","creator":null,"modifier":null,"att_editor":null},"geometry":{"type":"LineString","coordinates":[[-112.201751,33.712059,0.0],[-112.2014854,33.7120632,0.0]]}},
{"type":"Feature","properties":{"id":1011082,"type":"line-thin","subtype":"dotted","color":"white","creator":null,"modifier":null,"att_editor":null},"geometry":{"type":"LineString","coordinates":[[-112.2010509,33.7120895,0.0],[-112.2008942,33.7120932,0.0],[-112.2007885,33.712095,0.0]]}},
{"type":"Feature","properties":{"id":1011084,"type":"line-thin","subtype":"dotted","color":"white","creator":null,"modifier":null,"att_editor":null},"geometry":{"type":"LineString","coordinates":[[-112.2013209,33.7123807,0.0],[-112.2013214,33.7123807,0.0],[-112.2016142,33.7123708,0.0],[-112.2016241,33.7123704,0.0]]}},
{"type":"Feature","properties":{"id":1011086,"type":"line-thin","subtype":"dotted","color":"white","creator":null,"modifier":null,"att_editor":null},"geometry":{"type":"LineString","coordinates":[[-112.2016241,33.7123704,0.0],[-112.201646,33.7123698,0.0]]}},
{"type":"Feature","properties":{"id":1011088,"type":"line-thin","subtype":"dotted","color":"white","creator":null,"modifier":null,"att_editor":null},"geometry":{"type":"LineString","coordinates":[[-112.2020002,33.7123589,0.0],[-112.2020026,33.7123587,0.0],[-112.2020598,33.7123569,0.0]]}},
{"type":"Feature","properties":{"id":1011090,"type":"line-thin","subtype":"dotted","color":"white","creator":null,"modifier":null,"att_editor":null},"geometry":{"type":"LineString","coordinates":[[-112.2020598,33.7123569,0.0],[-112.2022502,33.7123511,0.0]]}},
{"type":"Feature","properties":{"id":1011092,"type":"line-thin","subtype":"dotted","color":"white","creator":null,"modifier":null,"att_editor":null},"geometry":{"type":"LineString","coordinates":[[-112.2019986,33.7123422,0.0],[-112.2020009,33.7123421,0.0],[-112.2020592,33.7123402,0.0]]}},
{"type":"Feature","properties":{"id":1011094,"type":"line-thin","subtype":"dotted","color":"white","creator":null,"modifier":null,"att_editor":null},"geometry":{"type":"LineString","coordinates":[[-112.2020592,33.7123402,0.0],[-112.202135,33.7123378,0.0],[-112.2022499,33.7123342,0.0]]}},
{"type":"Feature","properties":{"id":1011096,"type":"line-thin","subtype":"dotted","color":"white","creator":null,"modifier":null,"att_editor":null},"geometry":{"type":"LineString","coordinates":[[-112.2013191,33.7123632,0.0],[-112.2014169,33.7123602,0.0],[-112.2016232,33.712354,0.0]]}},
{"type":"Feature","properties":{"id":1011098,"type":"line-thin","subtype":"dotted","color":"white","creator":null,"modifier":null,"att_editor":null},"geometry":{"type":"LineString","coordinates":[[-112.2016232,33.712354,0.0],[-112.2016454,33.7123534,0.0]]}},
{"type":"Feature","properties":{"id":1011100,"type":"line-thin","subtype":"dotted","color":"white","creator":null,"modifier":null,"att_editor":null},"geometry":{"type":"LineString","coordinates":[[-112.2007922,33.7123725,0.0],[-112.2008639,33.7123719,0.0]]}},
{"type":"Feature","properties":{"id":1011102,"type":"line-thin","subtype":"dotted","color":"white","creator":null,"modifier":null,"att_editor":null},"geometry":{"type":"LineString","coordinates":[[-112.2008639,33.7123719,0.0],[-112.2009103,33.7123716,0.0],[-112.2010554,33.7123712,0.0]]}},
{"type":"Feature","properties":{"id":1011104,"type":"line-thin","subtype":"dotted","color":"white","creator":null,"modifier":null,"att_editor":null},"geometry":{"type":"LineString","coordinates":[[-112.1998632,33.7123775,0.0],[-112.2000932,33.7123766,0.0]]}},
{"type":"Feature","properties":{"id":1011106,"type":"line-thin","subtype":"dotted","color":"white","creator":null,"modifier":null,"att_editor":null},"geometry":{"type":"LineString","coordinates":[[-112.2000932,33.7123766,0.0],[-112.2001329,33.7123765,0.0]]}},
{"type":"Feature","properties":{"id":1011108,"type":"line-thin","subtype":"dotted","color":"white","creator":null,"modifier":null,"att_editor":null},"geometry":{"type":"LineString","coordinates":[[-112.2049951,33.7120953,0.0],[-112.2047639,33.7120965,0.0],[-112.2046776,33.712096,0.0]]}},
{"type":"Feature","properties":{"id":1011110,"type":"line-thin","subtype":"dotted","color":"white","creator":null,"modifier":null,"att_editor":null},"geometry":{"type":"LineString","coordinates":[[-112.2040708,33.7121002,0.0],[-112.2039954,33.7120988,0.0]]}},
{"type":"Feature","properties":{"id":1011112,"type":"line-thin","subtype":"dotted","color":"white","creator":null,"modifier":null,"att_editor":null},"geometry":{"type":"LineString","coordinates":[[-112.2039954,33.7120988,0.0],[-112.2038408,33.7120962,0.0]]}},
{"type":"Feature","properties":{"id":1011114,"type":"line-thin","subtype":"dotted","color":"white","creator":null,"modifier":null,"att_editor":null},"geometry":{"type":"LineString","coordinates":[[-112.2040705,33.7120863,0.0],[-112.2039953,33.7120849,0.0]]}},
{"type":"Feature","properties":{"id":1011116,"type":"line-thin","subtype":"dotted","color":"white","creator":null,"modifier":null,"att_editor":null},"geometry":{"type":"LineString","coordinates":[[-112.2039953,33.7120849,0.0],[-112.2038405,33.7120822,0.0]]}},
{"type":"Feature","properties":{"id":1011118,"type":"line-thin","subtype":"dotted","color":"white","creator":null,"modifier":null,"att_editor":null},"geometry":{"type":"LineString","coordinates":[[-112.2049956,33.7121077,0.0],[-112.2048757,33.7121094,0.0],[-112.2046775,33.7121099,0.0]]}}
]
}
